"ZIPCODE","CITY","COUNTY","ZIP_TYPE"
"11737","Farmingdale","Nassau","Standard"
"11738","Farmingville","Suffolk","Standard"
"11739","Great River","Suffolk","P.O. Box"
"11740","Greenlawn","Suffolk","Standard"
"11741","Holbrook","Suffolk","Standard"
"11742","Holtsville","Suffolk","Standard"
"11743","Huntington","Suffolk","Standard"
"11746","Huntington Station","Suffolk","Standard"
"11747","Melville","Suffolk","Standard"
"11749","Islandia","Suffolk","Standard"
"11751","Islip","Suffolk","Standard"
"11752","Islip Terrace","Suffolk","Standard"
"11753","Jericho","Nassau","Standard"
"11754","Kings Park","Suffolk","Standard"
"11755","Lake Grove","Suffolk","Standard"
"11756","Levittown","Nassau","Standard"
"11757","Lindenhurst","Suffolk","Standard"
"11758","Massapequa","Nassau","Standard"
"11760","Melville","Suffolk","P.O. Box"
"11762","Massapequa Park","Nassau","Standard"
"11763","Medford","Suffolk","Standard"
"11764","Miller Place","Suffolk","Standard"
"11765","Mill Neck","Nassau","Standard"
"11766","Mount Sinai","Suffolk","Standard"
"11767","Nesconset","Suffolk","Standard"
"11768","Northport","Suffolk","Standard"
"11769","Oakdale","Suffolk","Standard"
"11770","Ocean Beach","Suffolk","P.O. Box"
"11771","Oyster Bay","Nassau","Standard"
"11772","Patchogue","Suffolk","Standard"
"11773","Melville","Suffolk","Unique"
"11775","Melville","Suffolk","Unique"
"11776","Port Jefferson Station","Suffolk","Standard"
"11777","Port Jefferson","Suffolk","Standard"
"11778","Rocky Point","Suffolk","Standard"
"11779","Ronkonkoma","Suffolk","Standard"
"11780","Saint James","Suffolk","Standard"
"11782","Sayville","Suffolk","Standard"
"11783","Seaford","Nassau","Standard"
"11784","Selden","Suffolk","Standard"
"11786","Shoreham","Suffolk","Standard"
"11787","Smithtown","Suffolk","Standard"
"11788","Hauppauge","Suffolk","Standard"
"11789","Sound Beach","Suffolk","Standard"
"11790","Stony Brook","Suffolk","Standard"
"11791","Syosset","Nassau","Standard"
"11792","Wading River","Suffolk","Standard"
"11793","Wantagh","Nassau","Standard"
"11794","Stony Brook","Suffolk","Unique"
"11795","West Islip","Suffolk","Standard"
"11796","West Sayville","Suffolk","Standard"
"11797","Woodbury","Nassau","Standard"
"11798","Wyandanch","Suffolk","Standard"
"11801","Hicksville","Nassau","Standard"
"11802","Hicksville","Nassau","P.O. Box"
"11803","Plainview","Nassau","Standard"
"11804","Old Bethpage","Nassau","Standard"
"11815","Hicksville","Nassau","Unique"
"11853","Jericho","Nassau","Unique"
"11901","Riverhead","Suffolk","Standard"
"11930","Amagansett","Suffolk","P.O. Box"
"11931","Aquebogue","Suffolk","P.O. Box"
"11932","Bridgehampton","Suffolk","P.O. Box"
"11933","Calverton","Suffolk","Standard"
"11934","Center Moriches","Suffolk","Standard"
"11935","Cutchogue","Suffolk","Standard"
"11937","East Hampton","Suffolk","Standard"
"11939","East Marion","Suffolk","Standard"
"11940","East Moriches","Suffolk","Standard"
"11941","Eastport","Suffolk","Standard"
"11942","East Quogue","Suffolk","Standard"
"11944","Greenport","Suffolk","Standard"
"11946","Hampton Bays","Suffolk","Standard"
"11947","Jamesport","Suffolk","P.O. Box"
"11948","Laurel","Suffolk","Standard"
"11949","Manorville","Suffolk","Standard"
"11950","Mastic","Suffolk","Standard"
"11951","Mastic Beach","Suffolk","Standard"
"11952","Mattituck","Suffolk","Standard"
"11953","Middle Island","Suffolk","Standard"
"11954","Montauk","Suffolk","Standard"
"11955","Moriches","Suffolk","Standard"
"11956","New Suffolk","Suffolk","P.O. Box"
"11957","Orient","Suffolk","Standard"
"11958","Peconic","Suffolk","Standard"
"11959","Quogue","Suffolk","P.O. Box"
"11960","Remsenburg","Suffolk","P.O. Box"
"11961","Ridge","Suffolk","Standard"
"11962","Sagaponack","Suffolk","P.O. Box"
"11963","Sag Harbor","Suffolk","Standard"
"11964","Shelter Island","Suffolk","P.O. Box"
"11965","Shelter Island Heights","Suffolk","P.O. Box"
"11967","Shirley","Suffolk","Standard"
"11968","Southampton","Suffolk","Standard"
"11969","Southampton","Suffolk","P.O. Box"
"11970","South Jamesport","Suffolk","P.O. Box"
"11971","Southold","Suffolk","Standard"
"11972","Speonk","Suffolk","P.O. Box"
"11973","Upton","Suffolk","P.O. Box"
"11975","Wainscott","Suffolk","P.O. Box"
"11976","Water Mill","Suffolk","Standard"
"11977","Westhampton","Suffolk","Standard"
"11978","Westhampton Beach","Suffolk","Standard"
"11980","Yaphank","Suffolk","Standard"
"12007","Alcove","Albany","Standard"
"12008","Alplaus","Schenectady","Standard"
"12009","Altamont","Albany","Standard"
"12010","Amsterdam","Montgomery","Standard"
"12015","Athens","Greene","Standard"
"12016","Auriesville","Montgomery","Standard"
"12017","Austerlitz","Columbia","Standard"
"12018","Averill Park","Rensselaer","Standard"
"12019","Ballston Lake","Saratoga","Standard"
"12020","Ballston Spa","Saratoga","Standard"
"12022","Berlin","Rensselaer","Standard"
"12023","Berne","Albany","Standard"
"12024","Brainard","Rensselaer","Standard"
"12025","Broadalbin","Fulton","Standard"
"12027","Burnt Hills","Saratoga","Standard"
"12028","Buskirk","Washington","Standard"
"12029","Canaan","Columbia","Standard"
"12031","Carlisle","Schoharie","Standard"
"12032","Caroga Lake","Fulton","Standard"
"12033","Castleton On Hudson","Rensselaer","Standard"
"12035","Central Bridge","Schoharie","Standard"
"12036","Charlotteville","Schoharie","Standard"
"12037","Chatham","Columbia","Standard"
"12040","Cherry Plain","Rensselaer","P.O. Box"
"12041","Clarksville","Albany","Standard"
"12042","Climax","Greene","Standard"
"12043","Cobleskill","Schoharie","Standard"
"12045","Coeymans","Albany","P.O. Box"
"12046","Coeymans Hollow","Albany","Standard"
"12047","Cohoes","Albany","Standard"
"12050","Columbiaville","Columbia","P.O. Box"
"12051","Coxsackie","Greene","Standard"
"12052","Cropseyville","Rensselaer","Standard"
"12053","Delanson","Schenectady","Standard"
"12054","Delmar","Albany","Standard"
"12055","Dormansville","Albany","Standard"
"12056","Duanesburg","Schenectady","Standard"
"12057","Eagle Bridge","Rensselaer","Standard"
"12058","Earlton","Greene","Standard"
"12059","East Berne","Albany","Standard"
"12060","East Chatham","Columbia","Standard"
"12061","East Greenbush","Rensselaer","Standard"
"12062","East Nassau","Rensselaer","Standard"
"12063","East Schodack","Rensselaer","Standard"
"12064","East Worcester","Otsego","Standard"
"12065","Clifton Park","Saratoga","Standard"
"12066","Esperance","Montgomery","Standard"
"12067","Feura Bush","Albany","Standard"
"12068","Fonda","Montgomery","Standard"
"12069","Fort Hunter","Montgomery","P.O. Box"
"12070","Fort Johnson","Montgomery","Standard"
"12071","Fultonham","Schoharie","Standard"
"12072","Fultonville","Montgomery","Standard"
"12073","Gallupville","Schoharie","P.O. Box"
"12074","Galway","Saratoga","Standard"
"12075","Ghent","Columbia","Standard"
"12076","Gilboa","Schoharie","Standard"
"12077","Glenmont","Albany","Standard"
"12078","Gloversville","Fulton","Standard"
"12082","Grafton","Rensselaer","P.O. Box"
"12083","Greenville","Greene","Standard"
"12084","Guilderland","Albany","Standard"
"12085","Guilderland Center","Albany","Standard"
"12086","Hagaman","Montgomery","Standard"
"12087","Hannacroix","Greene","Standard"
"12089","Hoosick","Rensselaer","P.O. Box"
"12090","Hoosick Falls","Rensselaer","Standard"
"12092","Howes Cave","Schoharie","Standard"
"12093","Jefferson","Schoharie","Standard"
"12094","Johnsonville","Rensselaer","Standard"
"12095","Johnstown","Fulton","Standard"
"12106","Kinderhook","Columbia","Standard"
"12107","Knox","Albany","P.O. Box"
"12108","Lake Pleasant","Hamilton","Standard"
"12110","Latham","Albany","Standard"
"12115","Malden Bridge","Columbia","Standard"
"12116","Maryland","Otsego","Standard"
"12117","Mayfield","Fulton","Standard"
"12118","Mechanicville","Saratoga","Standard"
"12120","Medusa","Albany","Standard"
"12121","Melrose","Rensselaer","Standard"
"12122","Middleburgh","Schoharie","Standard"
"12123","Nassau","Rensselaer","Standard"
"12124","New Baltimore","Greene","P.O. Box"
"12125","New Lebanon","Columbia","Standard"
"12128","Newtonville","Albany","P.O. Box"
"12130","Niverville","Columbia","Standard"
"12131","North Blenheim","Schoharie","Standard"
"12132","North Chatham","Columbia","P.O. Box"
"12133","North Hoosick","Rensselaer","P.O. Box"
"12134","Northville","Fulton","Standard"
"12136","Old Chatham","Columbia","Standard"
"12137","Pattersonville","Schenectady","Standard"
"12138","Petersburg","Rensselaer","Standard"
"12139","Piseco","Hamilton","Standard"
"12140","Poestenkill","Rensselaer","Standard"
"12141","Quaker Street","Schenectady","P.O. Box"
"12143","Ravena","Albany","Standard"
"12144","Rensselaer","Rensselaer","Standard"
"12147","Rensselaerville","Albany","Standard"
"12148","Rexford","Saratoga","Standard"
"12149","Richmondville","Schoharie","Standard"
"12150","Rotterdam Junction","Schenectady","Standard"
"12151","Round Lake","Saratoga","Standard"
"12153","Sand Lake","Rensselaer","Standard"
"12154","Schaghticoke","Rensselaer","Standard"
"12155","Schenevus","Otsego","Standard"
"12156","Schodack Landing","Rensselaer","Standard"
"12157","Schoharie","Schoharie","Standard"
"12158","Selkirk","Albany","Standard"
"12159","Slingerlands","Albany","Standard"
"12160","Sloansville","Schoharie","Standard"
"12161","South Bethlehem","Albany","P.O. Box"
"12164","Speculator","Hamilton","Standard"
"12165","Spencertown","Columbia","Standard"
"12166","Sprakers","Montgomery","Standard"
"12167","Stamford","Delaware","Standard"
"12168","Stephentown","Rensselaer","Standard"
"12169","Stephentown","Rensselaer","Standard"
"12170","Stillwater","Saratoga","Standard"
"12172","Stottville","Columbia","P.O. Box"
"12173","Stuyvesant","Columbia","Standard"
"12174","Stuyvesant Falls","Columbia","P.O. Box"
"12175","Summit","Schoharie","Standard"
"12176","Surprise","Greene","Standard"
"12177","Tribes Hill","Montgomery","P.O. Box"
"12180","Troy","Rensselaer","Standard"
"12181","Troy","Rensselaer","P.O. Box"
"12182","Troy","Rensselaer","Standard"
"12183","Troy","Albany","Standard"
"12184","Valatie","Columbia","Standard"
"12185","Valley Falls","Rensselaer","Standard"
"12186","Voorheesville","Albany","Standard"
"12187","Warnerville","Schoharie","Standard"
"12188","Waterford","Saratoga","Standard"
"12189","Watervliet","Albany","Standard"
"12190","Wells","Hamilton","Standard"
"12192","West Coxsackie","Greene","Standard"
"12193","Westerlo","Albany","Standard"
"12194","West Fulton","Schoharie","Standard"
"12195","West Lebanon","Columbia","P.O. Box"
"12196","West Sand Lake","Rensselaer","Standard"
"12197","Worcester","Otsego","Standard"
"12198","Wynantskill","Rensselaer","Standard"
"12201","Albany","Albany","P.O. Box"
"12202","Albany","Albany","Standard"
"12203","Albany","Albany","Standard"
"12204","Albany","Albany","Standard"
"12205","Albany","Albany","Standard"
"12206","Albany","Albany","Standard"
"12207","Albany","Albany","Standard"
"12208","Albany","Albany","Standard"
"12209","Albany","Albany","Standard"
"12210","Albany","Albany","Standard"
"12211","Albany","Albany","Standard"
"12212","Albany","Albany","P.O. Box"
"12214","Albany","Albany","Unique"
"12220","Albany","Albany","P.O. Box"
"12222","Albany","Albany","Unique"
"12223","Albany","Albany","Standard"
"12224","Albany","Albany","P.O. Box"
"12225","Albany","Albany","P.O. Box"
"12226","Albany","Albany","Standard"
"12227","Albany","Albany","Unique"
"12228","Albany","Albany","Unique"
"12229","Albany","Albany","Unique"
"12230","Albany","Albany","Unique"
"12231","Albany","Albany","Unique"
"12232","Albany","Albany","Unique"
"12233","Albany","Albany","Unique"
"12234","Albany","Albany","Unique"
"12235","Albany","Albany","Unique"
"12236","Albany","Albany","Unique"
"12237","Albany","Albany","Unique"
"12238","Albany","Albany","Unique"
"12239","Albany","Albany","Unique"
"12240","Albany","Albany","Unique"
"12241","Albany","Albany","Unique"
"12242","Albany","Albany","Unique"
"12243","Albany","Albany","Unique"
"12244","Albany","Albany","Unique"
"12245","Albany","Albany","Unique"
"12246","Albany","Albany","Unique"
"12247","Albany","Albany","Unique"
"12248","Albany","Albany","Unique"
"12249","Albany","Albany","Unique"
"12250","Albany","Albany","Unique"
"12255","Albany","Albany","Unique"
"12257","Albany","Albany","Unique"
"12260","Albany","Albany","Standard"
"12261","Albany","Albany","Unique"
"12288","Albany","Albany","Unique"
"12301","Schenectady","Schenectady","P.O. Box"
"12302","Schenectady","Schenectady","Standard"
"12303","Schenectady","Schenectady","Standard"
"12304","Schenectady","Schenectady","Standard"
"12305","Schenectady","Schenectady","Standard"
"12306","Schenectady","Schenectady","Standard"
"12307","Schenectady","Schenectady","Standard"
"12308","Schenectady","Schenectady","Standard"
"12309","Schenectady","Schenectady","Standard"
"12325","Schenectady","Schenectady","P.O. Box"
"12345","Schenectady","Schenectady","Unique"
"12401","Kingston","Ulster","Standard"
"12402","Kingston","Ulster","P.O. Box"
"12404","Accord","Ulster","Standard"
"12405","Acra","Greene","Standard"
"12406","Arkville","Delaware","Standard"
"12407","Ashland","Greene","Standard"
"12409","Bearsville","Ulster","Standard"
"12410","Big Indian","Ulster","Standard"
"12411","Bloomington","Ulster","Standard"
"12412","Boiceville","Ulster","Standard"
"12413","Cairo","Greene","Standard"
"12414","Catskill","Greene","Standard"
"12416","Chichester","Ulster","Standard"
"12417","Connelly","Ulster","P.O. Box"
"12418","Cornwallville","Greene","Standard"
"12419","Cottekill","Ulster","Standard"
"12420","Cragsmoor","Ulster","P.O. Box"
"12421","Denver","Delaware","Standard"
"12422","Durham","Greene","Standard"
"12423","East Durham","Greene","Standard"
"12424","East Jewett","Greene","Standard"
"12427","Elka Park","Greene","Standard"
"12428","Ellenville","Ulster","Standard"
"12429","Esopus","Ulster","P.O. Box"
"12430","Fleischmanns","Delaware","Standard"
"12431","Freehold","Greene","Standard"
"12432","Glasco","Ulster","P.O. Box"
"12433","Glenford","Ulster","Standard"
"12434","Grand Gorge","Delaware","Standard"
"12435","Greenfield Park","Ulster","Standard"
"12436","Haines Falls","Greene","P.O. Box"
"12438","Halcottsville","Delaware","P.O. Box"
"12439","Hensonville","Greene","Standard"
"12440","High Falls","Ulster","Standard"
"12441","Highmount","Ulster","P.O. Box"
"12442","Hunter","Greene","Standard"
"12443","Hurley","Ulster","Standard"
"12444","Jewett","Greene","Standard"
"12446","Kerhonkson","Ulster","Standard"
"12448","Lake Hill","Ulster","Standard"
"12449","Lake Katrine","Ulster","Standard"
"12450","Lanesville","Greene","Standard"
"12451","Leeds","Greene","Standard"
"12452","Lexington","Greene","P.O. Box"
"12453","Malden On Hudson","Ulster","P.O. Box"
"12454","Maplecrest","Greene","Standard"
"12455","Margaretville","Delaware","Standard"
"12456","Mount Marion","Ulster","Standard"
"12457","Mount Tremper","Ulster","Standard"
"12458","Napanoch","Ulster","Standard"
"12459","New Kingston","Delaware","P.O. Box"
"12460","Oak Hill","Greene","Standard"
"12461","Olivebridge","Ulster","Standard"
"12463","Palenville","Greene","Standard"
"12464","Phoenicia","Ulster","Standard"
"12465","Pine Hill","Ulster","Standard"
"12466","Port Ewen","Ulster","Standard"
"12468","Prattsville","Greene","Standard"
"12469","Preston Hollow","Albany","Standard"
"12470","Purling","Greene","Standard"
"12471","Rifton","Ulster","P.O. Box"
"12472","Rosendale","Ulster","Standard"
"12473","Round Top","Greene","Standard"
"12474","Roxbury","Delaware","Standard"
"12475","Ruby","Ulster","P.O. Box"
"12477","Saugerties","Ulster","Standard"
"12480","Shandaken","Ulster","Standard"
"12481","Shokan","Ulster","Standard"
"12482","South Cairo","Greene","Standard"
"12483","Spring Glen","Ulster","P.O. Box"
"501  ","Holtsville","Suffolk","Unique"
"544  ","Holtsville","Suffolk","Unique"
"6390 ","Fishers Island","Suffolk","P.O. Box"
"10001","New York","New York","Standard"
"10002","New York","New York","Standard"
"10003","New York","New York","Standard"
"10004","New York","New York","Standard"
"10005","New York","New York","Standard"
"10006","New York","New York","Standard"
"10007","New York","New York","Standard"
"10008","New York","New York","P.O. Box"
"10009","New York","New York","Standard"
"10010","New York","New York","Standard"
"10011","New York","New York","Standard"
"10012","New York","New York","Standard"
"10013","New York","New York","Standard"
"10014","New York","New York","Standard"
"10016","New York","New York","Standard"
"10017","New York","New York","Standard"
"10018","New York","New York","Standard"
"10019","New York","New York","Standard"
"10020","New York","New York","Standard"
"10021","New York","New York","Standard"
"10022","New York","New York","Standard"
"10023","New York","New York","Standard"
"10024","New York","New York","Standard"
"10025","New York","New York","Standard"
"10026","New York","New York","Standard"
"10027","New York","New York","Standard"
"10028","New York","New York","Standard"
"10029","New York","New York","Standard"
"10030","New York","New York","Standard"
"10031","New York","New York","Standard"
"10032","New York","New York","Standard"
"10033","New York","New York","Standard"
"10034","New York","New York","Standard"
"10035","New York","New York","Standard"
"10036","New York","New York","Standard"
"10037","New York","New York","Standard"
"10038","New York","New York","Standard"
"10039","New York","New York","Standard"
"10040","New York","New York","Standard"
"10041","New York","New York","Standard"
"10043","New York","New York","Unique"
"10044","New York","New York","Standard"
"10045","New York","New York","Standard"
"10055","New York","New York","Standard"
"10060","New York","New York","Standard"
"10065","New York","New York","Standard"
"10069","New York","New York","Standard"
"10075","New York","New York","Standard"
"10080","New York","New York","Unique"
"10081","New York","New York","Unique"
"10087","New York","New York","Unique"
"10090","New York","New York","Standard"
"10101","New York","New York","P.O. Box"
"10102","New York","New York","Unique"
"10103","New York","New York","Standard"
"10104","New York","New York","Standard"
"10105","New York","New York","Standard"
"10106","New York","New York","Standard"
"10107","New York","New York","Standard"
"10108","New York","New York","P.O. Box"
"10109","New York","New York","Unique"
"10110","New York","New York","Standard"
"10111","New York","New York","Standard"
"10112","New York","New York","Standard"
"10113","New York","New York","P.O. Box"
"10114","New York","New York","Unique"
"10115","New York","New York","Standard"
"10116","New York","New York","P.O. Box"
"10117","New York","New York","Unique"
"10118","New York","New York","Standard"
"10119","New York","New York","Standard"
"10120","New York","New York","Standard"
"10121","New York","New York","Standard"
"10122","New York","New York","Standard"
"10123","New York","New York","Standard"
"10124","New York","New York","Unique"
"10125","New York","New York","Unique"
"10126","New York","New York","Unique"
"10128","New York","New York","Standard"
"10129","New York","New York","P.O. Box"
"10130","New York","New York","Unique"
"10131","New York","New York","Unique"
"10132","New York","New York","Unique"
"10133","New York","New York","Unique"
"10138","New York","New York","Unique"
"10150","New York","New York","P.O. Box"
"10151","New York","New York","Standard"
"10152","New York","New York","Standard"
"10153","New York","New York","Standard"
"10154","New York","New York","Standard"
"10155","New York","New York","Standard"
"10156","New York","New York","P.O. Box"
"10157","New York","New York","Unique"
"10158","New York","New York","Standard"
"10159","New York","New York","P.O. Box"
"10160","New York","New York","Unique"
"10162","New York","New York","Standard"
"10163","New York","New York","P.O. Box"
"10164","New York","New York","Unique"
"10165","New York","New York","Standard"
"10166","New York","New York","Standard"
"10167","New York","New York","Standard"
"10168","New York","New York","Standard"
"10169","New York","New York","Standard"
"10170","New York","New York","Standard"
"10171","New York","New York","Standard"
"10172","New York","New York","Standard"
"10173","New York","New York","Standard"
"10174","New York","New York","Standard"
"10175","New York","New York","Standard"
"10176","New York","New York","Standard"
"10177","New York","New York","Standard"
"10178","New York","New York","Standard"
"10179","New York","New York","Unique"
"10185","New York","New York","P.O. Box"
"10199","New York","New York","Standard"
"10203","New York","New York","Unique"
"10211","New York","New York","Unique"
"10212","New York","New York","Unique"
"10213","New York","New York","Unique"
"10242","New York","New York","P.O. Box"
"10249","New York","New York","P.O. Box"
"10256","New York","New York","Unique"
"10258","New York","New York","Unique"
"10259","New York","New York","Unique"
"10260","New York","New York","Standard"
"10261","New York","New York","Unique"
"10265","New York","New York","Standard"
"10268","New York","New York","P.O. Box"
"10269","New York","New York","Unique"
"10270","New York","New York","Standard"
"10271","New York","New York","Standard"
"10272","New York","New York","P.O. Box"
"10273","New York","New York","Unique"
"10274","New York","New York","P.O. Box"
"10275","New York","New York","Unique"
"10276","New York","New York","P.O. Box"
"10277","New York","New York","Unique"
"10278","New York","New York","Standard"
"10279","New York","New York","Standard"
"10280","New York","New York","Standard"
"10281","New York","New York","Standard"
"10282","New York","New York","Standard"
"10285","New York","New York","Unique"
"10286","New York","New York","Unique"
"10301","Staten Island","Richmond","Standard"
"10302","Staten Island","Richmond","Standard"
"10303","Staten Island","Richmond","Standard"
"10304","Staten Island","Richmond","Standard"
"10305","Staten Island","Richmond","Standard"
"10306","Staten Island","Richmond","Standard"
"10307","Staten Island","Richmond","Standard"
"10308","Staten Island","Richmond","Standard"
"10309","Staten Island","Richmond","Standard"
"10310","Staten Island","Richmond","Standard"
"10311","Staten Island","Richmond","Standard"
"10312","Staten Island","Richmond","Standard"
"10313","Staten Island","Richmond","P.O. Box"
"10314","Staten Island","Richmond","Standard"
"10451","Bronx","Bronx","Standard"
"10452","Bronx","Bronx","Standard"
"10453","Bronx","Bronx","Standard"
"10454","Bronx","Bronx","Standard"
"10455","Bronx","Bronx","Standard"
"10456","Bronx","Bronx","Standard"
"10457","Bronx","Bronx","Standard"
"10458","Bronx","Bronx","Standard"
"10459","Bronx","Bronx","Standard"
"10460","Bronx","Bronx","Standard"
"10461","Bronx","Bronx","Standard"
"10462","Bronx","Bronx","Standard"
"10463","Bronx","Bronx","Standard"
"10464","Bronx","Bronx","Standard"
"10465","Bronx","Bronx","Standard"
"10466","Bronx","Bronx","Standard"
"10467","Bronx","Bronx","Standard"
"10468","Bronx","Bronx","Standard"
"10469","Bronx","Bronx","Standard"
"10470","Bronx","Bronx","Standard"
"10471","Bronx","Bronx","Standard"
"10472","Bronx","Bronx","Standard"
"10473","Bronx","Bronx","Standard"
"10474","Bronx","Bronx","Standard"
"10475","Bronx","Bronx","Standard"
"10501","Amawalk","Westchester","Standard"
"10502","Ardsley","Westchester","Standard"
"10503","Ardsley On Hudson","Westchester","P.O. Box"
"10504","Armonk","Westchester","Standard"
"10505","Baldwin Place","Westchester","Standard"
"10506","Bedford","Westchester","Standard"
"10507","Bedford Hills","Westchester","Standard"
"10509","Brewster","Putnam","Standard"
"10510","Briarcliff Manor","Westchester","Standard"
"10511","Buchanan","Westchester","Standard"
"10512","Carmel","Putnam","Standard"
"10514","Chappaqua","Westchester","Standard"
"10516","Cold Spring","Putnam","Standard"
"10517","Crompond","Westchester","P.O. Box"
"10518","Cross River","Westchester","Standard"
"10519","Croton Falls","Westchester","P.O. Box"
"10520","Croton On Hudson","Westchester","Standard"
"10521","Croton On Hudson","Westchester","P.O. Box"
"10522","Dobbs Ferry","Westchester","Standard"
"10523","Elmsford","Westchester","Standard"
"10524","Garrison","Putnam","Standard"
"10526","Goldens Bridge","Westchester","Standard"
"10527","Granite Springs","Westchester","Standard"
"10528","Harrison","Westchester","Standard"
"10530","Hartsdale","Westchester","Standard"
"10532","Hawthorne","Westchester","Standard"
"10533","Irvington","Westchester","Standard"
"10535","Jefferson Valley","Westchester","Standard"
"10536","Katonah","Westchester","Standard"
"10537","Lake Peekskill","Putnam","Standard"
"10538","Larchmont","Westchester","Standard"
"10540","Lincolndale","Westchester","P.O. Box"
"10541","Mahopac","Putnam","Standard"
"10542","Mahopac Falls","Putnam","P.O. Box"
"10543","Mamaroneck","Westchester","Standard"
"10545","Maryknoll","Westchester","P.O. Box"
"10546","Millwood","Westchester","Standard"
"10547","Mohegan Lake","Westchester","Standard"
"10548","Montrose","Westchester","Standard"
"10549","Mount Kisco","Westchester","Standard"
"10550","Mount Vernon","Westchester","Standard"
"10551","Mount Vernon","Westchester","P.O. Box"
"10552","Mount Vernon","Westchester","Standard"
"10553","Mount Vernon","Westchester","Standard"
"10560","North Salem","Westchester","Standard"
"10562","Ossining","Westchester","Standard"
"10566","Peekskill","Westchester","Standard"
"10567","Cortlandt Manor","Westchester","Standard"
"10570","Pleasantville","Westchester","Standard"
"10573","Port Chester","Westchester","Standard"
"10576","Pound Ridge","Westchester","Standard"
"10577","Purchase","Westchester","Standard"
"10578","Purdys","Westchester","Standard"
"10579","Putnam Valley","Putnam","Standard"
"10580","Rye","Westchester","Standard"
"10583","Scarsdale","Westchester","Standard"
"10587","Shenorock","Westchester","P.O. Box"
"10588","Shrub Oak","Westchester","Standard"
"10589","Somers","Westchester","Standard"
"10590","South Salem","Westchester","Standard"
"10591","Tarrytown","Westchester","Standard"
"10594","Thornwood","Westchester","Standard"
"10595","Valhalla","Westchester","Standard"
"10596","Verplanck","Westchester","P.O. Box"
"10597","Waccabuc","Westchester","Standard"
"10598","Yorktown Heights","Westchester","Standard"
"10601","White Plains","Westchester","Standard"
"10602","White Plains","Westchester","P.O. Box"
"10603","White Plains","Westchester","Standard"
"10604","West Harrison","Westchester","Standard"
"10605","White Plains","Westchester","Standard"
"10606","White Plains","Westchester","Standard"
"10607","White Plains","Westchester","Standard"
"10610","White Plains","Westchester","P.O. Box"
"10701","Yonkers","Westchester","Standard"
"10702","Yonkers","Westchester","P.O. Box"
"10703","Yonkers","Westchester","Standard"
"10704","Yonkers","Westchester","Standard"
"10705","Yonkers","Westchester","Standard"
"10706","Hastings On Hudson","Westchester","Standard"
"10707","Tuckahoe","Westchester","Standard"
"10708","Bronxville","Westchester","Standard"
"10709","Eastchester","Westchester","Standard"
"10710","Yonkers","Westchester","Standard"
"10801","New Rochelle","Westchester","Standard"
"10802","New Rochelle","Westchester","P.O. Box"
"10803","Pelham","Westchester","Standard"
"10804","New Rochelle","Westchester","Standard"
"10805","New Rochelle","Westchester","Standard"
"10901","Suffern","Rockland","Standard"
"10910","Arden","Orange","P.O. Box"
"10911","Bear Mountain","Rockland","Standard"
"10912","Bellvale","Orange","P.O. Box"
"10913","Blauvelt","Rockland","Standard"
"10914","Blooming Grove","Orange","P.O. Box"
"10915","Bullville","Orange","P.O. Box"
"10916","Campbell Hall","Orange","Standard"
"10917","Central Valley","Orange","Standard"
"10918","Chester","Orange","Standard"
"10919","Circleville","Orange","Standard"
"10920","Congers","Rockland","Standard"
"10921","Florida","Orange","Standard"
"10922","Fort Montgomery","Orange","P.O. Box"
"10923","Garnerville","Rockland","Standard"
"10924","Goshen","Orange","Standard"
"10925","Greenwood Lake","Orange","Standard"
"10926","Harriman","Orange","Standard"
"10927","Haverstraw","Rockland","Standard"
"10928","Highland Falls","Orange","Standard"
"10930","Highland Mills","Orange","Standard"
"10931","Hillburn","Rockland","Standard"
"10932","Howells","Orange","P.O. Box"
"10933","Johnson","Orange","P.O. Box"
"10940","Middletown","Orange","Standard"
"10941","Middletown","Orange","Standard"
"10949","Monroe","Orange","P.O. Box"
"10950","Monroe","Orange","Standard"
"10952","Monsey","Rockland","Standard"
"10953","Mountainville","Orange","P.O. Box"
"10954","Nanuet","Rockland","Standard"
"10956","New City","Rockland","Standard"
"10958","New Hampton","Orange","Standard"
"10959","New Milford","Orange","P.O. Box"
"10960","Grandview On Hudson","Rockland","Standard"
"10960","Nyack","Rockland","Standard"
"10962","Orangeburg","Rockland","Standard"
"10963","Otisville","Orange","Standard"
"10964","Palisades","Rockland","Standard"
"10965","Pearl River","Rockland","Standard"
"10968","Piermont","Rockland","Standard"
"10969","Pine Island","Orange","Standard"
"10970","Pomona","Rockland","Standard"
"10973","Slate Hill","Orange","Standard"
"10974","Sloatsburg","Rockland","Standard"
"10975","Southfields","Orange","Standard"
"10976","Sparkill","Rockland","Standard"
"10977","Spring Valley","Rockland","Standard"
"10979","Sterling Forest","Orange","P.O. Box"
"10980","Stony Point","Rockland","Standard"
"10981","Sugar Loaf","Orange","P.O. Box"
"10982","Tallman","Rockland","P.O. Box"
"10983","Tappan","Rockland","Standard"
"10984","Thiells","Rockland","Standard"
"10985","Thompson Ridge","Orange","Standard"
"10986","Tomkins Cove","Rockland","Standard"
"10987","Tuxedo Park","Orange","Standard"
"10988","Unionville","Orange","P.O. Box"
"10989","Valley Cottage","Rockland","Standard"
"10990","Warwick","Orange","Standard"
"10992","Washingtonville","Orange","Standard"
"10993","West Haverstraw","Rockland","Standard"
"10994","West Nyack","Rockland","Standard"
"10996","West Point","Orange","Standard"
"10997","West Point","Orange","P.O. Box"
"10998","Westtown","Orange","Standard"
"11001","Bellerose Village","Nassau","Standard"
"11001","Floral Park","Nassau","Standard"
"11001","South Floral Park","Nassau","Standard"
"11002","Floral Park","Nassau","P.O. Box"
"11003","Elmont","Nassau","Standard"
"11004","Glen Oaks","Queens","Standard"
"11005","Floral Park","Queens","Standard"
"11010","Franklin Square","Nassau","Standard"
"11020","Great Neck","Nassau","Standard"
"11021","Great Neck","Nassau","Standard"
"11022","Great Neck","Nassau","P.O. Box"
"11023","Great Neck","Nassau","Standard"
"11024","Great Neck","Nassau","Standard"
"11026","Great Neck","Nassau","P.O. Box"
"11027","Great Neck","Nassau","P.O. Box"
"11030","Manhasset","Nassau","Standard"
"11040","New Hyde Park","Nassau","Standard"
"11042","New Hyde Park","Nassau","Standard"
"11050","Port Washington","Nassau","Standard"
"11051","Port Washington","Nassau","Unique"
"11052","Port Washington","Nassau","Unique"
"11053","Port Washington","Nassau","Unique"
"11054","Port Washington","Nassau","Unique"
"11055","Port Washington","Nassau","Unique"
"11096","Inwood","Nassau","Standard"
"11101","Long Island City","Queens","Standard"
"11102","Astoria","Queens","Standard"
"11103","Astoria","Queens","Standard"
"11104","Sunnyside","Queens","Standard"
"11105","Astoria","Queens","Standard"
"11106","Astoria","Queens","Standard"
"11109","Long Island City","Queens","Standard"
"11120","Long Island City","Queens","Unique"
"11201","Brooklyn","Kings","Standard"
"11202","Brooklyn","Kings","P.O. Box"
"11203","Brooklyn","Kings","Standard"
"11204","Brooklyn","Kings","Standard"
"11205","Brooklyn","Kings","Standard"
"11206","Brooklyn","Kings","Standard"
"11207","Brooklyn","Kings","Standard"
"11208","Brooklyn","Kings","Standard"
"11209","Brooklyn","Kings","Standard"
"11210","Brooklyn","Kings","Standard"
"11211","Brooklyn","Kings","Standard"
"11212","Brooklyn","Kings","Standard"
"11213","Brooklyn","Kings","Standard"
"11214","Brooklyn","Kings","Standard"
"11215","Brooklyn","Kings","Standard"
"11216","Brooklyn","Kings","Standard"
"11217","Brooklyn","Kings","Standard"
"11218","Brooklyn","Kings","Standard"
"11219","Brooklyn","Kings","Standard"
"11220","Brooklyn","Kings","Standard"
"11221","Brooklyn","Kings","Standard"
"11222","Brooklyn","Kings","Standard"
"11223","Brooklyn","Kings","Standard"
"11224","Brooklyn","Kings","Standard"
"11225","Brooklyn","Kings","Standard"
"11226","Brooklyn","Kings","Standard"
"11228","Brooklyn","Kings","Standard"
"11229","Brooklyn","Kings","Standard"
"11230","Brooklyn","Kings","Standard"
"11231","Brooklyn","Kings","Standard"
"11232","Brooklyn","Kings","Standard"
"11233","Brooklyn","Kings","Standard"
"11234","Brooklyn","Kings","Standard"
"11235","Brooklyn","Kings","Standard"
"11236","Brooklyn","Kings","Standard"
"11237","Brooklyn","Kings","Standard"
"11238","Brooklyn","Kings","Standard"
"11239","Brooklyn","Kings","Standard"
"11241","Brooklyn","Kings","Standard"
"11242","Brooklyn","Kings","Standard"
"11243","Brooklyn","Kings","Standard"
"11245","Brooklyn","Kings","Unique"
"11247","Brooklyn","Kings","P.O. Box"
"11249","Brooklyn","Kings","Standard"
"11251","Brooklyn","Kings","Unique"
"11252","Brooklyn","Kings","Standard"
"11256","Brooklyn","Kings","Standard"
"11351","Flushing","Queens","Standard"
"11352","Flushing","Queens","P.O. Box"
"11354","Flushing","Queens","Standard"
"11355","Flushing","Queens","Standard"
"11356","College Point","Queens","Standard"
"11357","Whitestone","Queens","Standard"
"11358","Flushing","Queens","Standard"
"11359","Bayside","Queens","Standard"
"11360","Bayside","Queens","Standard"
"11361","Bayside","Queens","Standard"
"11362","Little Neck","Queens","Standard"
"11363","Little Neck","Queens","Standard"
"11364","Oakland Gardens","Queens","Standard"
"11365","Fresh Meadows","Queens","Standard"
"11366","Fresh Meadows","Queens","Standard"
"11367","Flushing","Queens","Standard"
"11368","Corona","Queens","Standard"
"11369","East Elmhurst","Queens","Standard"
"11370","East Elmhurst","Queens","Standard"
"11371","Flushing","Queens","Standard"
"11372","Jackson Heights","Queens","Standard"
"11373","Elmhurst","Queens","Standard"
"11374","Rego Park","Queens","Standard"
"11375","Forest Hills","Queens","Standard"
"11377","Woodside","Queens","Standard"
"11378","Maspeth","Queens","Standard"
"11379","Middle Village","Queens","Standard"
"11380","Elmhurst","Queens","P.O. Box"
"11381","Flushing","Queens","Unique"
"11385","Ridgewood","Queens","Standard"
"11386","Ridgewood","Queens","P.O. Box"
"11405","Jamaica","Queens","Unique"
"11411","Cambria Heights","Queens","Standard"
"11412","Saint Albans","Queens","Standard"
"11413","Springfield Gardens","Queens","Standard"
"11414","Howard Beach","Queens","Standard"
"11415","Kew Gardens","Queens","Standard"
"11416","Ozone Park","Queens","Standard"
"11417","Ozone Park","Queens","Standard"
"11418","Richmond Hill","Queens","Standard"
"11419","South Richmond Hill","Queens","Standard"
"11420","South Ozone Park","Queens","Standard"
"11421","Woodhaven","Queens","Standard"
"11422","Rosedale","Queens","Standard"
"11423","Hollis","Queens","Standard"
"11424","Jamaica","Queens","P.O. Box"
"11425","Jamaica","Queens","Unique"
"11426","Bellerose","Queens","Standard"
"11427","Queens Village","Queens","Standard"
"11428","Queens Village","Queens","Standard"
"11429","Queens Village","Queens","Standard"
"11430","Jamaica","Queens","Standard"
"11431","Jamaica","Queens","P.O. Box"
"11432","Jamaica","Queens","Standard"
"11433","Jamaica","Queens","Standard"
"11434","Jamaica","Queens","Standard"
"11435","Jamaica","Queens","Standard"
"11436","Jamaica","Queens","Standard"
"11437","Jamaica","Queens","Unique"
"11439","Jamaica","Queens","Unique"
"11451","Jamaica","Queens","Unique"
"11499","Jamaica","Queens","Unique"
"11501","Mineola","Nassau","Standard"
"11507","Albertson","Nassau","Standard"
"11509","Atlantic Beach","Nassau","Standard"
"11510","Baldwin","Nassau","Standard"
"11514","Carle Place","Nassau","Standard"
"11516","Cedarhurst","Nassau","Standard"
"11518","East Rockaway","Nassau","Standard"
"11520","Freeport","Nassau","Standard"
"11530","Garden City","Nassau","Standard"
"11531","Garden City","Nassau","P.O. Box"
"11542","Glen Cove","Nassau","Standard"
"11545","Glen Head","Nassau","Standard"
"11547","Glenwood Landing","Nassau","P.O. Box"
"11548","Greenvale","Nassau","Standard"
"11549","Hempstead","Nassau","Unique"
"11550","Hempstead","Nassau","Standard"
"11551","Hempstead","Nassau","P.O. Box"
"11552","West Hempstead","Nassau","Standard"
"11553","Uniondale","Nassau","Standard"
"11554","East Meadow","Nassau","Standard"
"11555","Uniondale","Nassau","Unique"
"11556","Uniondale","Nassau","Standard"
"11557","Hewlett","Nassau","Standard"
"11558","Island Park","Nassau","Standard"
"11559","Lawrence","Nassau","Standard"
"11560","Locust Valley","Nassau","Standard"
"11561","Long Beach","Nassau","Standard"
"11563","Lynbrook","Nassau","Standard"
"11565","Malverne","Nassau","Standard"
"11566","Merrick","Nassau","Standard"
"11568","Old Westbury","Nassau","Standard"
"11569","Point Lookout","Nassau","P.O. Box"
"11570","Rockville Centre","Nassau","Standard"
"11571","Rockville Centre","Nassau","P.O. Box"
"11572","Oceanside","Nassau","Standard"
"11575","Roosevelt","Nassau","Standard"
"11576","Roslyn","Nassau","Standard"
"11577","Roslyn Heights","Nassau","Standard"
"11579","Sea Cliff","Nassau","Standard"
"11580","Valley Stream","Nassau","Standard"
"11581","Valley Stream","Nassau","Standard"
"11582","Valley Stream","Nassau","P.O. Box"
"11590","Westbury","Nassau","Standard"
"11596","Williston Park","Nassau","Standard"
"11598","Woodmere","Nassau","Standard"
"11599","Garden City","Nassau","Standard"
"11690","Far Rockaway","Queens","P.O. Box"
"11691","Far Rockaway","Queens","Standard"
"11692","Arverne","Queens","Standard"
"11693","Far Rockaway","Queens","Standard"
"11694","Rockaway Park","Queens","Standard"
"11695","Far Rockaway","Queens","P.O. Box"
"11697","Breezy Point","Queens","Standard"
"11701","Amityville","Suffolk","Standard"
"11702","Babylon","Suffolk","Standard"
"11703","North Babylon","Suffolk","Standard"
"11704","West Babylon","Suffolk","Standard"
"11705","Bayport","Suffolk","Standard"
"11706","Bay Shore","Suffolk","Standard"
"11707","West Babylon","Suffolk","P.O. Box"
"11709","Bayville","Nassau","Standard"
"11710","Bellmore","Nassau","Standard"
"11713","Bellport","Suffolk","Standard"
"11714","Bethpage","Nassau","Standard"
"11715","Blue Point","Suffolk","Standard"
"11716","Bohemia","Suffolk","Standard"
"11717","Brentwood","Suffolk","Standard"
"11718","Brightwaters","Suffolk","Standard"
"11719","Brookhaven","Suffolk","Standard"
"11720","Centereach","Suffolk","Standard"
"11721","Centerport","Suffolk","Standard"
"11722","Central Islip","Suffolk","Standard"
"11724","Cold Spring Harbor","Suffolk","Standard"
"11725","Commack","Suffolk","Standard"
"11726","Copiague","Suffolk","Standard"
"11727","Coram","Suffolk","Standard"
"11729","Deer Park","Suffolk","Standard"
"11730","East Islip","Suffolk","Standard"
"11731","East Northport","Suffolk","Standard"
"11732","East Norwich","Nassau","Standard"
"11733","East Setauket","Suffolk","Standard"
"11735","Farmingdale","Nassau","Standard"
"12844","Kattskill Bay","Warren","Standard"
"12845","Lake George","Warren","Standard"
"12846","Lake Luzerne","Warren","Standard"
"12847","Long Lake","Hamilton","Standard"
"12848","Middle Falls","Washington","P.O. Box"
"12849","Middle Granville","Washington","Standard"
"12850","Middle Grove","Saratoga","Standard"
"12851","Minerva","Essex","Standard"
"12852","Newcomb","Essex","Standard"
"12853","North Creek","Warren","Standard"
"12854","North Granville","Washington","Standard"
"12855","North Hudson","Essex","Standard"
"12856","North River","Warren","P.O. Box"
"12857","Olmstedville","Essex","Standard"
"12858","Paradox","Essex","Standard"
"12859","Porter Corners","Saratoga","Standard"
"12860","Pottersville","Warren","Standard"
"12861","Putnam Station","Washington","Standard"
"12862","Riparius","Warren","P.O. Box"
"12863","Rock City Falls","Saratoga","Standard"
"12864","Sabael","Hamilton","Standard"
"12865","Salem","Washington","Standard"
"12866","Saratoga Springs","Saratoga","Standard"
"12870","Schroon Lake","Essex","Standard"
"12871","Schuylerville","Saratoga","Standard"
"12872","Severance","Essex","P.O. Box"
"12873","Shushan","Washington","Standard"
"12874","Silver Bay","Warren","Standard"
"12878","Stony Creek","Warren","Standard"
"12879","Newcomb","Essex","Standard"
"12883","Ticonderoga","Essex","Standard"
"12884","Victory Mills","Saratoga","P.O. Box"
"12885","Warrensburg","Warren","Standard"
"12886","Wevertown","Warren","Standard"
"12887","Whitehall","Washington","Standard"
"12901","Plattsburgh","Clinton","Standard"
"12903","Plattsburgh","Clinton","Standard"
"12910","Altona","Clinton","Standard"
"12911","Keeseville","Clinton","Standard"
"12912","Au Sable Forks","Clinton","Standard"
"12913","Bloomingdale","Essex","Standard"
"12914","Bombay","Franklin","Standard"
"12915","Brainardsville","Franklin","P.O. Box"
"12916","Brushton","Franklin","Standard"
"12917","Burke","Franklin","Standard"
"12918","Cadyville","Clinton","Standard"
"12919","Champlain","Clinton","Standard"
"12920","Chateaugay","Franklin","Standard"
"12921","Chazy","Clinton","Standard"
"12922","Childwold","Saint Lawrence","Standard"
"12923","Churubusco","Clinton","Standard"
"12924","Keeseville","Clinton","Standard"
"12926","Constable","Franklin","Standard"
"12927","Cranberry Lake","Saint Lawrence","P.O. Box"
"12928","Crown Point","Essex","Standard"
"12929","Dannemora","Clinton","P.O. Box"
"12930","Dickinson Center","Franklin","Standard"
"12932","Elizabethtown","Essex","Standard"
"12933","Ellenburg","Clinton","P.O. Box"
"12934","Ellenburg Center","Clinton","Standard"
"12935","Ellenburg Depot","Clinton","Standard"
"12936","Essex","Essex","Standard"
"12937","Fort Covington","Franklin","Standard"
"12939","Gabriels","Franklin","P.O. Box"
"12941","Jay","Essex","Standard"
"12942","Keene","Essex","Standard"
"12943","Keene Valley","Essex","Standard"
"12944","Keeseville","Clinton","Standard"
"12945","Lake Clear","Franklin","Standard"
"12946","Lake Placid","Essex","Standard"
"12949","Lawrenceville","Saint Lawrence","Standard"
"12950","Lewis","Essex","Standard"
"12952","Lyon Mountain","Clinton","Standard"
"12953","Malone","Franklin","Standard"
"12955","Lyon Mountain","Clinton","Standard"
"12956","Mineville","Essex","Standard"
"12957","Moira","Franklin","Standard"
"12958","Mooers","Clinton","Standard"
"12959","Mooers Forks","Clinton","Standard"
"12960","Moriah","Essex","Standard"
"12961","Moriah Center","Essex","Standard"
"12962","Morrisonville","Clinton","Standard"
"12964","New Russia","Essex","Standard"
"12965","Nicholville","Saint Lawrence","Standard"
"12966","North Bangor","Franklin","Standard"
"12967","North Lawrence","Saint Lawrence","Standard"
"12969","Owls Head","Franklin","Standard"
"12970","Paul Smiths","Franklin","Standard"
"12972","Peru","Clinton","Standard"
"12973","Piercefield","Saint Lawrence","P.O. Box"
"12974","Port Henry","Essex","Standard"
"12975","Port Kent","Essex","P.O. Box"
"12976","Rainbow Lake","Franklin","P.O. Box"
"12977","Ray Brook","Essex","P.O. Box"
"12978","Redford","Clinton","Standard"
"12979","Rouses Point","Clinton","Standard"
"12980","Saint Regis Falls","Franklin","Standard"
"12981","Saranac","Clinton","Standard"
"12983","Saranac Lake","Franklin","Standard"
"12985","Schuyler Falls","Clinton","Standard"
"12986","Tupper Lake","Franklin","Standard"
"12987","Upper Jay","Essex","Standard"
"12989","Vermontville","Franklin","Standard"
"12992","West Chazy","Clinton","Standard"
"12993","Westport","Essex","Standard"
"12995","Whippleville","Franklin","P.O. Box"
"12996","Willsboro","Essex","Standard"
"12997","Wilmington","Essex","Standard"
"12998","Witherbee","Essex","Standard"
"13020","Apulia Station","Onondaga","P.O. Box"
"13021","Auburn","Cayuga","Standard"
"13022","Auburn","Cayuga","P.O. Box"
"13024","Auburn","Cayuga","Unique"
"13026","Aurora","Cayuga","Standard"
"13027","Baldwinsville","Onondaga","Standard"
"13028","Bernhards Bay","Oswego","Standard"
"13029","Brewerton","Onondaga","Standard"
"13030","Bridgeport","Onondaga","Standard"
"13031","Camillus","Onondaga","Standard"
"13032","Canastota","Madison","Standard"
"13033","Cato","Cayuga","Standard"
"13034","Cayuga","Cayuga","Standard"
"13035","Cazenovia","Madison","Standard"
"13036","Central Square","Oswego","Standard"
"13037","Chittenango","Madison","Standard"
"13039","Cicero","Onondaga","Standard"
"13040","Cincinnatus","Cortland","Standard"
"13041","Clay","Onondaga","Standard"
"13042","Cleveland","Oswego","Standard"
"13043","Clockville","Madison","P.O. Box"
"13044","Constantia","Oswego","Standard"
"13045","Cortland","Cortland","Standard"
"13051","Delphi Falls","Onondaga","P.O. Box"
"13052","De Ruyter","Madison","Standard"
"13053","Dryden","Tompkins","Standard"
"13054","Durhamville","Oneida","Standard"
"13056","East Homer","Cortland","P.O. Box"
"13057","East Syracuse","Onondaga","Standard"
"13060","Elbridge","Onondaga","Standard"
"13061","Erieville","Madison","Standard"
"13062","Etna","Tompkins","P.O. Box"
"13063","Fabius","Onondaga","Standard"
"13064","Fair Haven","Cayuga","P.O. Box"
"13065","Fayette","Seneca","P.O. Box"
"13066","Fayetteville","Onondaga","Standard"
"13068","Freeville","Tompkins","Standard"
"13069","Fulton","Oswego","Standard"
"13071","Genoa","Cayuga","Standard"
"13072","Georgetown","Madison","Standard"
"13073","Groton","Tompkins","Standard"
"13074","Hannibal","Oswego","Standard"
"13076","Hastings","Oswego","Standard"
"13077","Homer","Cortland","Standard"
"13078","Jamesville","Onondaga","Standard"
"13080","Jordan","Onondaga","Standard"
"13081","King Ferry","Cayuga","Standard"
"13082","Kirkville","Onondaga","Standard"
"13083","Lacona","Oswego","Standard"
"13084","La Fayette","Onondaga","Standard"
"13087","Little York","Cortland","P.O. Box"
"13088","Liverpool","Onondaga","Standard"
"13089","Liverpool","Onondaga","P.O. Box"
"13090","Liverpool","Onondaga","Standard"
"13092","Locke","Cayuga","Standard"
"13093","Lycoming","Oswego","P.O. Box"
"13101","Mc Graw","Cortland","Standard"
"13102","Mc Lean","Tompkins","P.O. Box"
"13103","Mallory","Oswego","Standard"
"13104","Manlius","Onondaga","Standard"
"13107","Maple View","Oswego","P.O. Box"
"13108","Marcellus","Onondaga","Standard"
"13110","Marietta","Onondaga","Standard"
"13111","Martville","Cayuga","Standard"
"13112","Memphis","Onondaga","Standard"
"13113","Meridian","Cayuga","P.O. Box"
"13114","Mexico","Oswego","Standard"
"13115","Minetto","Oswego","P.O. Box"
"13116","Minoa","Onondaga","Standard"
"13117","Montezuma","Cayuga","P.O. Box"
"13118","Moravia","Cayuga","Standard"
"13119","Mottville","Onondaga","P.O. Box"
"13120","Nedrow","Onondaga","Standard"
"13121","New Haven","Oswego","P.O. Box"
"13122","New Woodstock","Madison","Standard"
"13123","North Bay","Oneida","P.O. Box"
"13124","North Pitcher","Chenango","Standard"
"13126","Oswego","Oswego","Standard"
"13131","Parish","Oswego","Standard"
"13132","Pennellville","Oswego","Standard"
"13134","Peterboro","Madison","P.O. Box"
"13135","Phoenix","Oswego","Standard"
"13136","Pitcher","Chenango","Standard"
"13137","Plainville","Onondaga","P.O. Box"
"13138","Pompey","Onondaga","P.O. Box"
"13139","Poplar Ridge","Cayuga","P.O. Box"
"13140","Port Byron","Cayuga","Standard"
"13141","Preble","Cortland","Standard"
"13142","Pulaski","Oswego","Standard"
"13143","Red Creek","Wayne","Standard"
"13144","Richland","Oswego","Standard"
"13145","Sandy Creek","Oswego","Standard"
"13146","Savannah","Wayne","Standard"
"13147","Scipio Center","Cayuga","Standard"
"13148","Seneca Falls","Seneca","Standard"
"13152","Skaneateles","Onondaga","Standard"
"13153","Skaneateles Falls","Onondaga","P.O. Box"
"13154","South Butler","Wayne","P.O. Box"
"13155","South Otselic","Chenango","Standard"
"13156","Sterling","Cayuga","Standard"
"13157","Sylvan Beach","Oneida","P.O. Box"
"13158","Truxton","Cortland","Standard"
"13159","Tully","Onondaga","Standard"
"13160","Union Springs","Cayuga","Standard"
"13162","Verona Beach","Oneida","P.O. Box"
"13163","Wampsville","Madison","P.O. Box"
"13164","Warners","Onondaga","Standard"
"13165","Waterloo","Seneca","Standard"
"13166","Weedsport","Cayuga","Standard"
"13167","West Monroe","Oswego","Standard"
"13201","Syracuse","Onondaga","P.O. Box"
"13202","Syracuse","Onondaga","Standard"
"13203","Syracuse","Onondaga","Standard"
"13204","Syracuse","Onondaga","Standard"
"13205","Syracuse","Onondaga","Standard"
"13206","Syracuse","Onondaga","Standard"
"13207","Syracuse","Onondaga","Standard"
"13208","Syracuse","Onondaga","Standard"
"13209","Syracuse","Onondaga","Standard"
"13210","Syracuse","Onondaga","Standard"
"13211","Syracuse","Onondaga","Standard"
"13212","Syracuse","Onondaga","Standard"
"13214","Syracuse","Onondaga","Standard"
"13215","Syracuse","Onondaga","Standard"
"13217","Syracuse","Onondaga","P.O. Box"
"13218","Syracuse","Onondaga","P.O. Box"
"13219","Syracuse","Onondaga","Standard"
"13220","Syracuse","Onondaga","P.O. Box"
"13221","Syracuse","Onondaga","P.O. Box"
"13224","Syracuse","Onondaga","Standard"
"13225","Syracuse","Onondaga","Unique"
"13235","Syracuse","Onondaga","P.O. Box"
"13244","Syracuse","Onondaga","Unique"
"13250","Syracuse","Onondaga","Unique"
"13251","Syracuse","Onondaga","Unique"
"13252","Syracuse","Onondaga","Unique"
"13261","Syracuse","Onondaga","P.O. Box"
"13290","Syracuse","Onondaga","P.O. Box"
"13301","Alder Creek","Oneida","Standard"
"13302","Altmar","Oswego","Standard"
"13303","Ava","Oneida","Standard"
"13304","Barneveld","Oneida","Standard"
"13305","Beaver Falls","Lewis","P.O. Box"
"13308","Blossvale","Oneida","Standard"
"13309","Boonville","Oneida","Standard"
"13310","Bouckville","Madison","Standard"
"13312","Brantingham","Lewis","P.O. Box"
"13313","Bridgewater","Oneida","P.O. Box"
"13314","Brookfield","Madison","Standard"
"13315","Burlington Flats","Otsego","Standard"
"13316","Camden","Oneida","Standard"
"13317","Canajoharie","Montgomery","Standard"
"13318","Cassville","Oneida","Standard"
"13319","Chadwicks","Oneida","Standard"
"13320","Cherry Valley","Otsego","Standard"
"13321","Clark Mills","Oneida","P.O. Box"
"13322","Clayville","Oneida","Standard"
"13323","Clinton","Oneida","Standard"
"13324","Cold Brook","Herkimer","Standard"
"13325","Constableville","Lewis","Standard"
"13326","Cooperstown","Otsego","Standard"
"13327","Croghan","Lewis","Standard"
"13328","Deansboro","Oneida","Standard"
"13329","Dolgeville","Herkimer","Standard"
"13331","Eagle Bay","Herkimer","Standard"
"13332","Earlville","Chenango","Standard"
"13333","East Springfield","Otsego","Standard"
"13334","Eaton","Madison","Standard"
"13335","Edmeston","Otsego","Standard"
"13337","Fly Creek","Otsego","Standard"
"13338","Forestport","Oneida","Standard"
"13339","Fort Plain","Montgomery","Standard"
"13340","Frankfort","Herkimer","Standard"
"13341","Franklin Springs","Oneida","P.O. Box"
"13342","Garrattsville","Otsego","Standard"
"13343","Glenfield","Lewis","Standard"
"13345","Greig","Lewis","Standard"
"13346","Hamilton","Madison","Standard"
"13348","Hartwick","Otsego","Standard"
"13350","Herkimer","Herkimer","Standard"
"13352","Hinckley","Oneida","P.O. Box"
"13353","Hoffmeister","Hamilton","P.O. Box"
"13354","Holland Patent","Oneida","Standard"
"13355","Hubbardsville","Madison","Standard"
"13357","Ilion","Herkimer","Standard"
"13360","Inlet","Hamilton","Standard"
"13361","Jordanville","Herkimer","Standard"
"13362","Knoxboro","Oneida","P.O. Box"
"13363","Lee Center","Oneida","Standard"
"13364","Leonardsville","Madison","P.O. Box"
"13365","Little Falls","Herkimer","Standard"
"13367","Lowville","Lewis","Standard"
"13368","Lyons Falls","Lewis","Standard"
"13401","Mc Connellsville","Oneida","P.O. Box"
"13402","Madison","Madison","Standard"
"13403","Marcy","Oneida","Standard"
"13404","Martinsburg","Lewis","P.O. Box"
"13406","Middleville","Herkimer","Standard"
"13407","Mohawk","Herkimer","Standard"
"13408","Morrisville","Madison","Standard"
"13409","Munnsville","Madison","Standard"
"13410","Nelliston","Montgomery","P.O. Box"
"13411","New Berlin","Chenango","Standard"
"13413","New Hartford","Oneida","Standard"
"13415","New Lisbon","Otsego","Standard"
"13416","Newport","Herkimer","Standard"
"13417","New York Mills","Oneida","Standard"
"13418","North Brookfield","Madison","Standard"
"13420","Old Forge","Herkimer","Standard"
"13421","Oneida","Madison","Standard"
"13424","Oriskany","Oneida","Standard"
"13425","Oriskany Falls","Oneida","Standard"
"13426","Orwell","Oswego","P.O. Box"
"13428","Palatine Bridge","Montgomery","Standard"
"13431","Poland","Herkimer","Standard"
"13433","Port Leyden","Lewis","Standard"
"13435","Prospect","Oneida","P.O. Box"
"13436","Raquette Lake","Hamilton","Standard"
"13437","Redfield","Oswego","Standard"
"13438","Remsen","Oneida","Standard"
"13439","Richfield Springs","Otsego","Standard"
"13440","Rome","Oneida","Standard"
"13441","Rome","Oneida","Standard"
"13442","Rome","Oneida","P.O. Box"
"13449","Rome","Oneida","Unique"
"13450","Roseboom","Otsego","Standard"
"13452","Saint Johnsville","Montgomery","Standard"
"13454","Salisbury Center","Herkimer","Standard"
"13455","Sangerfield","Oneida","P.O. Box"
"13456","Sauquoit","Oneida","Standard"
"13457","Schuyler Lake","Otsego","P.O. Box"
"13459","Sharon Springs","Schoharie","Standard"
"13460","Sherburne","Chenango","Standard"
"13461","Sherrill","Oneida","Standard"
"13464","Smyrna","Chenango","Standard"
"13465","Solsville","Madison","Standard"
"13468","Springfield Center","Otsego","Standard"
"13469","Stittville","Oneida","Standard"
"13470","Stratford","Fulton","Standard"
"13471","Taberg","Oneida","Standard"
"13472","Thendara","Herkimer","P.O. Box"
"13473","Turin","Lewis","Standard"
"13475","Van Hornesville","Herkimer","Standard"
"13476","Vernon","Oneida","Standard"
"13477","Vernon Center","Oneida","Standard"
"13478","Verona","Oneida","Standard"
"13479","Washington Mills","Oneida","P.O. Box"
"13480","Waterville","Oneida","Standard"
"13482","West Burlington","Otsego","Standard"
"13483","Westdale","Oneida","Standard"
"13484","West Eaton","Madison","P.O. Box"
"13485","West Edmeston","Madison","Standard"
"13486","Westernville","Oneida","Standard"
"13488","Westford","Otsego","Standard"
"13489","West Leyden","Lewis","Standard"
"13490","Westmoreland","Oneida","Standard"
"13491","West Winfield","Herkimer","Standard"
"13492","Whitesboro","Oneida","Standard"
"13493","Williamstown","Oswego","Standard"
"13494","Woodgate","Oneida","Standard"
"13495","Yorkville","Oneida","Standard"
"13501","Utica","Oneida","Standard"
"13502","Utica","Oneida","Standard"
"13503","Utica","Oneida","P.O. Box"
"13504","Utica","Oneida","P.O. Box"
"13505","Utica","Oneida","P.O. Box"
"13599","Utica","Oneida","Unique"
"13601","Watertown","Jefferson","Standard"
"13602","Fort Drum","Jefferson","Standard"
"13902","Binghamton","Broome","P.O. Box"
"13903","Binghamton","Broome","Standard"
"13904","Binghamton","Broome","Standard"
"13905","Binghamton","Broome","Standard"
"14001","Akron","Erie","Standard"
"14004","Alden","Erie","Standard"
"14005","Alexander","Genesee","Standard"
"14006","Angola","Erie","Standard"
"14008","Appleton","Niagara","Standard"
"14009","Arcade","Wyoming","Standard"
"14010","Athol Springs","Erie","P.O. Box"
"14011","Attica","Wyoming","Standard"
"14012","Barker","Niagara","Standard"
"14013","Basom","Genesee","Standard"
"14020","Batavia","Genesee","Standard"
"14021","Batavia","Genesee","P.O. Box"
"14024","Bliss","Wyoming","Standard"
"14025","Boston","Erie","Standard"
"14026","Bowmansville","Erie","Standard"
"14027","Brant","Erie","P.O. Box"
"14028","Burt","Niagara","Standard"
"14029","Centerville","Allegany","P.O. Box"
"14030","Chaffee","Erie","Standard"
"14031","Clarence","Erie","Standard"
"14032","Clarence Center","Erie","Standard"
"14033","Colden","Erie","Standard"
"14034","Collins","Erie","Standard"
"14035","Collins Center","Erie","P.O. Box"
"14036","Corfu","Genesee","Standard"
"14037","Cowlesville","Wyoming","Standard"
"14038","Crittenden","Erie","P.O. Box"
"14039","Dale","Wyoming","Standard"
"14040","Darien Center","Genesee","Standard"
"14041","Dayton","Cattaraugus","Standard"
"14042","Delevan","Cattaraugus","Standard"
"14043","Depew","Erie","Standard"
"14047","Derby","Erie","Standard"
"14048","Dunkirk","Chautauqua","Standard"
"14051","East Amherst","Erie","Standard"
"14052","East Aurora","Erie","Standard"
"14054","East Bethany","Genesee","Standard"
"14055","East Concord","Erie","Standard"
"14056","East Pembroke","Genesee","P.O. Box"
"14057","Eden","Erie","Standard"
"14058","Elba","Genesee","Standard"
"14059","Elma","Erie","Standard"
"14060","Farmersville Station","Cattaraugus","Standard"
"14061","Farnham","Erie","P.O. Box"
"14062","Forestville","Chautauqua","Standard"
"14063","Fredonia","Chautauqua","Standard"
"14065","Freedom","Cattaraugus","Standard"
"14066","Gainesville","Wyoming","Standard"
"14067","Gasport","Niagara","Standard"
"14068","Getzville","Erie","Standard"
"14069","Glenwood","Erie","Standard"
"14070","Gowanda","Cattaraugus","Standard"
"14072","Grand Island","Erie","Standard"
"14075","Hamburg","Erie","Standard"
"14080","Holland","Erie","Standard"
"14081","Irving","Chautauqua","Standard"
"14082","Java Center","Wyoming","Standard"
"14083","Java Village","Wyoming","Standard"
"14085","Lake View","Erie","Standard"
"14086","Lancaster","Erie","Standard"
"14091","Lawtons","Erie","Standard"
"14092","Lewiston","Niagara","Standard"
"14094","Lockport","Niagara","Standard"
"14095","Lockport","Niagara","P.O. Box"
"14098","Lyndonville","Orleans","Standard"
"14101","Machias","Cattaraugus","Standard"
"14102","Marilla","Erie","Standard"
"14103","Medina","Orleans","Standard"
"14105","Middleport","Niagara","Standard"
"14107","Model City","Niagara","P.O. Box"
"14108","Newfane","Niagara","Standard"
"14109","Niagara University","Niagara","P.O. Box"
"14110","North Boston","Erie","P.O. Box"
"14111","North Collins","Erie","Standard"
"14112","North Evans","Erie","P.O. Box"
"14113","North Java","Wyoming","Standard"
"14120","North Tonawanda","Niagara","Standard"
"14125","Oakfield","Genesee","Standard"
"14126","Olcott","Niagara","P.O. Box"
"14127","Orchard Park","Erie","Standard"
"14129","Perrysburg","Cattaraugus","Standard"
"14130","Pike","Wyoming","P.O. Box"
"14131","Ransomville","Niagara","Standard"
"14132","Sanborn","Niagara","Standard"
"14133","Sandusky","Cattaraugus","P.O. Box"
"14134","Sardinia","Erie","Standard"
"14135","Sheridan","Chautauqua","P.O. Box"
"14136","Silver Creek","Chautauqua","Standard"
"14138","South Dayton","Cattaraugus","Standard"
"14139","South Wales","Erie","Standard"
"14140","Spring Brook","Erie","P.O. Box"
"14141","Springville","Erie","Standard"
"14143","Stafford","Genesee","Standard"
"14144","Stella Niagara","Niagara","Standard"
"14145","Strykersville","Wyoming","Standard"
"14150","Tonawanda","Erie","Standard"
"14151","Tonawanda","Erie","P.O. Box"
"14166","Van Buren Point","Chautauqua","P.O. Box"
"14167","Varysburg","Wyoming","Standard"
"14168","Versailles","Cattaraugus","P.O. Box"
"14169","Wales Center","Erie","P.O. Box"
"14170","West Falls","Erie","Standard"
"14171","West Valley","Cattaraugus","Standard"
"14172","Wilson","Niagara","Standard"
"14173","Yorkshire","Cattaraugus","P.O. Box"
"14174","Youngstown","Niagara","Standard"
"14201","Buffalo","Erie","Standard"
"14202","Buffalo","Erie","Standard"
"14203","Buffalo","Erie","Standard"
"14204","Buffalo","Erie","Standard"
"14205","Buffalo","Erie","P.O. Box"
"14206","Buffalo","Erie","Standard"
"14207","Buffalo","Erie","Standard"
"14208","Buffalo","Erie","Standard"
"14209","Buffalo","Erie","Standard"
"14210","Buffalo","Erie","Standard"
"14211","Buffalo","Erie","Standard"
"14212","Buffalo","Erie","Standard"
"14213","Buffalo","Erie","Standard"
"14214","Buffalo","Erie","Standard"
"14215","Buffalo","Erie","Standard"
"14216","Buffalo","Erie","Standard"
"14217","Buffalo","Erie","Standard"
"14218","Buffalo","Erie","Standard"
"14219","Buffalo","Erie","Standard"
"14220","Buffalo","Erie","Standard"
"14221","Buffalo","Erie","Standard"
"14222","Buffalo","Erie","Standard"
"14223","Buffalo","Erie","Standard"
"14224","Buffalo","Erie","Standard"
"14225","Buffalo","Erie","Standard"
"14226","Buffalo","Erie","Standard"
"14227","Buffalo","Erie","Standard"
"14228","Buffalo","Erie","Standard"
"14231","Buffalo","Erie","P.O. Box"
"14233","Buffalo","Erie","Unique"
"14240","Buffalo","Erie","P.O. Box"
"14241","Buffalo","Erie","Unique"
"14260","Buffalo","Erie","Unique"
"14261","Buffalo","Erie","Unique"
"14263","Buffalo","Erie","Unique"
"14264","Buffalo","Erie","Unique"
"14265","Buffalo","Erie","Unique"
"14267","Buffalo","Erie","Unique"
"14269","Buffalo","Erie","Unique"
"14270","Buffalo","Erie","Unique"
"14272","Buffalo","Erie","Unique"
"14273","Buffalo","Erie","Unique"
"14276","Buffalo","Erie","Unique"
"14280","Buffalo","Erie","Unique"
"14301","Niagara Falls","Niagara","Standard"
"14302","Niagara Falls","Niagara","P.O. Box"
"14303","Niagara Falls","Niagara","Standard"
"14304","Niagara Falls","Niagara","Standard"
"14305","Niagara Falls","Niagara","Standard"
"14410","Adams Basin","Monroe","P.O. Box"
"14411","Albion","Orleans","Standard"
"14413","Alton","Wayne","P.O. Box"
"14414","Avon","Livingston","Standard"
"14415","Bellona","Yates","Standard"
"14416","Bergen","Genesee","Standard"
"14418","Branchport","Yates","Standard"
"14420","Brockport","Monroe","Standard"
"14422","Byron","Genesee","Standard"
"14423","Caledonia","Livingston","Standard"
"14424","Canandaigua","Ontario","Standard"
"14425","Farmington","Ontario","Standard"
"14427","Castile","Wyoming","Standard"
"14428","Churchville","Monroe","Standard"
"14429","Clarendon","Orleans","P.O. Box"
"14430","Clarkson","Monroe","P.O. Box"
"14432","Clifton Springs","Ontario","Standard"
"14433","Clyde","Wayne","Standard"
"14435","Conesus","Livingston","Standard"
"14437","Dansville","Livingston","Standard"
"14441","Dresden","Yates","Standard"
"14443","East Bloomfield","Ontario","P.O. Box"
"14445","East Rochester","Monroe","Standard"
"14449","East Williamson","Wayne","P.O. Box"
"14450","Fairport","Monroe","Standard"
"14452","Fancher","Orleans","P.O. Box"
"14453","Fishers","Ontario","P.O. Box"
"14454","Geneseo","Livingston","Standard"
"14456","Geneva","Ontario","Standard"
"14461","Gorham","Ontario","P.O. Box"
"14462","Groveland","Livingston","Standard"
"14463","Hall","Ontario","P.O. Box"
"14464","Hamlin","Monroe","Standard"
"14466","Hemlock","Livingston","Standard"
"14467","Henrietta","Monroe","Standard"
"14468","Hilton","Monroe","Standard"
"14469","Bloomfield","Ontario","Standard"
"14470","Holley","Orleans","Standard"
"14471","Honeoye","Ontario","Standard"
"14472","Honeoye Falls","Monroe","Standard"
"14475","Ionia","Ontario","Standard"
"14476","Kendall","Orleans","Standard"
"14477","Kent","Orleans","Standard"
"14478","Keuka Park","Yates","Standard"
"14479","Knowlesville","Orleans","Standard"
"14480","Lakeville","Livingston","Standard"
"14481","Leicester","Livingston","Standard"
"14482","Le Roy","Genesee","Standard"
"14485","Lima","Livingston","Standard"
"14486","Linwood","Livingston","Standard"
"14487","Livonia","Livingston","Standard"
"14488","Livonia Center","Livingston","P.O. Box"
"14489","Lyons","Wayne","Standard"
"14502","Macedon","Wayne","Standard"
"14504","Manchester","Ontario","Standard"
"14505","Marion","Wayne","Standard"
"14506","Mendon","Monroe","Standard"
"14507","Middlesex","Yates","Standard"
"14508","Morton","Monroe","P.O. Box"
"14510","Mount Morris","Livingston","Standard"
"14511","Mumford","Monroe","P.O. Box"
"14512","Naples","Ontario","Standard"
"14513","Newark","Wayne","Standard"
"14514","North Chili","Monroe","Standard"
"14515","North Greece","Monroe","P.O. Box"
"14516","North Rose","Wayne","Standard"
"14517","Nunda","Livingston","Standard"
"14518","Oaks Corners","Ontario","P.O. Box"
"14519","Ontario","Wayne","Standard"
"14520","Ontario Center","Wayne","P.O. Box"
"14521","Ovid","Seneca","Standard"
"14522","Palmyra","Wayne","Standard"
"14525","Pavilion","Genesee","Standard"
"14526","Penfield","Monroe","Standard"
"14527","Penn Yan","Yates","Standard"
"14529","Perkinsville","Steuben","P.O. Box"
"14530","Perry","Wyoming","Standard"
"14532","Phelps","Ontario","Standard"
"14533","Piffard","Livingston","Standard"
"14534","Pittsford","Monroe","Standard"
"14536","Portageville","Wyoming","Standard"
"14537","Port Gibson","Ontario","P.O. Box"
"14538","Pultneyville","Wayne","P.O. Box"
"14539","Retsof","Livingston","P.O. Box"
"14541","Romulus","Seneca","Standard"
"14542","Rose","Wayne","P.O. Box"
"14543","Rush","Monroe","Standard"
"14544","Rushville","Yates","Standard"
"14545","Scottsburg","Livingston","Standard"
"14546","Scottsville","Monroe","Standard"
"14547","Seneca Castle","Ontario","P.O. Box"
"14548","Shortsville","Ontario","Standard"
"14549","Silver Lake","Wyoming","P.O. Box"
"14550","Silver Springs","Wyoming","Standard"
"14551","Sodus","Wayne","Standard"
"14555","Sodus Point","Wayne","Standard"
"14556","Sonyea","Livingston","P.O. Box"
"14557","South Byron","Genesee","P.O. Box"
"14558","South Lima","Livingston","P.O. Box"
"14559","Spencerport","Monroe","Standard"
"14560","Springwater","Livingston","Standard"
"14561","Stanley","Ontario","Standard"
"14563","Union Hill","Wayne","P.O. Box"
"14564","Victor","Ontario","Standard"
"14568","Walworth","Wayne","Standard"
"14569","Warsaw","Wyoming","Standard"
"14571","Waterport","Orleans","Standard"
"14572","Wayland","Steuben","Standard"
"14580","Webster","Monroe","Standard"
"14585","West Bloomfield","Ontario","Standard"
"14586","West Henrietta","Monroe","Standard"
"14588","Willard","Seneca","P.O. Box"
"14589","Williamson","Wayne","Standard"
"14590","Wolcott","Wayne","Standard"
"14591","Wyoming","Wyoming","Standard"
"14592","York","Livingston","P.O. Box"
"14602","Rochester","Monroe","P.O. Box"
"14603","Rochester","Monroe","P.O. Box"
"14604","Rochester","Monroe","Standard"
"14605","Rochester","Monroe","Standard"
"14606","Rochester","Monroe","Standard"
"14607","Rochester","Monroe","Standard"
"14608","Rochester","Monroe","Standard"
"14609","Rochester","Monroe","Standard"
"14610","Rochester","Monroe","Standard"
"14611","Rochester","Monroe","Standard"
"14612","Rochester","Monroe","Standard"
"14613","Rochester","Monroe","Standard"
"14614","Rochester","Monroe","Standard"
"14615","Rochester","Monroe","Standard"
"14616","Rochester","Monroe","Standard"
"14617","Rochester","Monroe","Standard"
"14618","Rochester","Monroe","Standard"
"14619","Rochester","Monroe","Standard"
"14620","Rochester","Monroe","Standard"
"14621","Rochester","Monroe","Standard"
"14622","Rochester","Monroe","Standard"
"14623","Rochester","Monroe","Standard"
"14624","Rochester","Monroe","Standard"
"14625","Rochester","Monroe","Standard"
"14626","Rochester","Monroe","Standard"
"14627","Rochester","Monroe","P.O. Box"
"14638","Rochester","Monroe","Unique"
"14639","Rochester","Monroe","Unique"
"14642","Rochester","Monroe","Unique"
"14643","Rochester","Monroe","Unique"
"14644","Rochester","Monroe","Unique"
"14646","Rochester","Monroe","Unique"
"14647","Rochester","Monroe","Unique"
"14649","Rochester","Monroe","Unique"
"14650","Rochester","Monroe","Unique"
"14651","Rochester","Monroe","Unique"
"14652","Rochester","Monroe","Unique"
"14653","Rochester","Monroe","Unique"
"14692","Rochester","Monroe","P.O. Box"
"14694","Rochester","Monroe","Unique"
"14701","Jamestown","Chautauqua","Standard"
"14702","Jamestown","Chautauqua","P.O. Box"
"14706","Allegany","Cattaraugus","Standard"
"14707","Allentown","Allegany","P.O. Box"
"14708","Alma","Allegany","Standard"
"14709","Angelica","Allegany","Standard"
"14710","Ashville","Chautauqua","Standard"
"14711","Belfast","Allegany","Standard"
"14712","Bemus Point","Chautauqua","Standard"
"14714","Black Creek","Allegany","Standard"
"14715","Bolivar","Allegany","Standard"
"14716","Brocton","Chautauqua","Standard"
"14717","Caneadea","Allegany","Standard"
"14718","Cassadaga","Chautauqua","Standard"
"14719","Cattaraugus","Cattaraugus","Standard"
"14720","Celoron","Chautauqua","P.O. Box"
"14721","Ceres","Allegany","Standard"
"14722","Chautauqua","Chautauqua","P.O. Box"
"14723","Cherry Creek","Chautauqua","Standard"
"14724","Clymer","Chautauqua","Standard"
"14726","Conewango Valley","Cattaraugus","Standard"
"14727","Cuba","Allegany","Standard"
"14728","Dewittville","Chautauqua","Standard"
"14729","East Otto","Cattaraugus","Standard"
"14730","East Randolph","Cattaraugus","P.O. Box"
"14731","Ellicottville","Cattaraugus","Standard"
"14732","Ellington","Chautauqua","P.O. Box"
"14733","Falconer","Chautauqua","Standard"
"14735","Fillmore","Allegany","Standard"
"14736","Findley Lake","Chautauqua","Standard"
"14737","Franklinville","Cattaraugus","Standard"
"14738","Frewsburg","Chautauqua","Standard"
"14739","Friendship","Allegany","Standard"
"14740","Gerry","Chautauqua","Standard"
"14741","Great Valley","Cattaraugus","Standard"
"14742","Greenhurst","Chautauqua","P.O. Box"
"14743","Hinsdale","Cattaraugus","Standard"
"14744","Houghton","Allegany","Standard"
"14745","Hume","Allegany","P.O. Box"
"14747","Kennedy","Chautauqua","Standard"
"14748","Kill Buck","Cattaraugus","Standard"
"14750","Lakewood","Chautauqua","Standard"
"14751","Leon","Cattaraugus","P.O. Box"
"14752","Lily Dale","Chautauqua","P.O. Box"
"14753","Limestone","Cattaraugus","Standard"
"14754","Little Genesee","Allegany","Standard"
"14755","Little Valley","Cattaraugus","Standard"
"14756","Maple Springs","Chautauqua","P.O. Box"
"14757","Mayville","Chautauqua","Standard"
"14758","Niobe","Chautauqua","P.O. Box"
"14760","Olean","Cattaraugus","Standard"
"14766","Otto","Cattaraugus","P.O. Box"
"14767","Panama","Chautauqua","Standard"
"14769","Portland","Chautauqua","Standard"
"14770","Portville","Cattaraugus","Standard"
"14772","Randolph","Cattaraugus","Standard"
"14774","Richburg","Allegany","P.O. Box"
"14775","Ripley","Chautauqua","Standard"
"14777","Rushford","Allegany","Standard"
"14778","Saint Bonaventure","Cattaraugus","P.O. Box"
"14779","Salamanca","Cattaraugus","Standard"
"14781","Sherman","Chautauqua","Standard"
"14782","Sinclairville","Chautauqua","Standard"
"14783","Steamburg","Cattaraugus","P.O. Box"
"14784","Stockton","Chautauqua","Standard"
"14785","Stow","Chautauqua","P.O. Box"
"14786","West Clarksville","Allegany","P.O. Box"
"14787","Westfield","Chautauqua","Standard"
"14788","Westons Mills","Cattaraugus","P.O. Box"
"14801","Addison","Steuben","Standard"
"14802","Alfred","Allegany","Standard"
"14803","Alfred Station","Allegany","Standard"
"14804","Almond","Allegany","Standard"
"14805","Alpine","Schuyler","Standard"
"14806","Andover","Allegany","Standard"
"14807","Arkport","Steuben","Standard"
"14808","Atlanta","Steuben","Standard"
"14809","Avoca","Steuben","Standard"
"14810","Bath","Steuben","Standard"
"14812","Beaver Dams","Schuyler","Standard"
"14813","Belmont","Allegany","Standard"
"14814","Big Flats","Chemung","Standard"
"14815","Bradford","Schuyler","Standard"
"14816","Breesport","Chemung","Standard"
"14817","Brooktondale","Tompkins","Standard"
"14818","Burdett","Schuyler","Standard"
"14819","Cameron","Steuben","Standard"
"14820","Cameron Mills","Steuben","Standard"
"14821","Campbell","Steuben","Standard"
"14822","Canaseraga","Allegany","Standard"
"14823","Canisteo","Steuben","Standard"
"14824","Cayuta","Schuyler","Standard"
"14825","Chemung","Chemung","Standard"
"14826","Cohocton","Steuben","Standard"
"14827","Coopers Plains","Steuben","P.O. Box"
"14830","Corning","Steuben","Standard"
"14831","Corning","Steuben","Unique"
"14836","Dalton","Livingston","Standard"
"14837","Dundee","Yates","Standard"
"14838","Erin","Chemung","Standard"
"14839","Greenwood","Steuben","Standard"
"14840","Hammondsport","Steuben","Standard"
"14841","Hector","Schuyler","Standard"
"14842","Himrod","Yates","Standard"
"14843","Hornell","Steuben","Standard"
"14845","Horseheads","Chemung","Standard"
"14846","Hunt","Livingston","Standard"
"14847","Interlaken","Seneca","Standard"
"14850","Ithaca","Tompkins","Standard"
"14851","Ithaca","Tompkins","P.O. Box"
"14852","Ithaca","Tompkins","P.O. Box"
"14853","Ithaca","Tompkins","Standard"
"14854","Jacksonville","Tompkins","P.O. Box"
"14855","Jasper","Steuben","Standard"
"14856","Kanona","Steuben","P.O. Box"
"14857","Lakemont","Yates","P.O. Box"
"14858","Lindley","Steuben","Standard"
"14859","Lockwood","Tioga","Standard"
"14860","Lodi","Seneca","Standard"
"14861","Lowman","Chemung","Standard"
"14863","Mecklenburg","Schuyler","P.O. Box"
"14864","Millport","Chemung","Standard"
"14865","Montour Falls","Schuyler","Standard"
"14867","Newfield","Tompkins","Standard"
"14869","Odessa","Schuyler","Standard"
"14870","Painted Post","Steuben","Standard"
"14871","Pine City","Chemung","Standard"
"14872","Pine Valley","Chemung","Standard"
"14873","Prattsburgh","Steuben","Standard"
"14874","Pulteney","Steuben","Standard"
"14876","Reading Center","Schuyler","P.O. Box"
"14877","Rexville","Steuben","Standard"
"14878","Rock Stream","Schuyler","Standard"
"14879","Savona","Steuben","Standard"
"14880","Scio","Allegany","Standard"
"14881","Slaterville Springs","Tompkins","Standard"
"14882","Lansing","Tompkins","Standard"
"14883","Spencer","Tioga","Standard"
"14884","Swain","Allegany","Standard"
"14885","Troupsburg","Steuben","Standard"
"14886","Trumansburg","Tompkins","Standard"
"14887","Tyrone","Schuyler","P.O. Box"
"14889","Van Etten","Chemung","Standard"
"14891","Watkins Glen","Schuyler","Standard"
"14892","Waverly","Tioga","Standard"
"14893","Wayne","Schuyler","P.O. Box"
"14894","Wellsburg","Chemung","Standard"
"14895","Wellsville","Allegany","Standard"
"14897","Whitesville","Allegany","Standard"
"14898","Woodhull","Steuben","Standard"
"14901","Elmira","Chemung","Standard"
"14902","Elmira","Chemung","P.O. Box"
"14903","Elmira","Chemung","Standard"
"14904","Elmira","Chemung","Standard"
"14905","Elmira","Chemung","Standard"
"13603","Watertown","Jefferson","Standard"
"13605","Adams","Jefferson","Standard"
"13606","Adams Center","Jefferson","Standard"
"13607","Alexandria Bay","Jefferson","Standard"
"13608","Antwerp","Jefferson","Standard"
"13611","Belleville","Jefferson","P.O. Box"
"13612","Black River","Jefferson","Standard"
"13613","Brasher Falls","Saint Lawrence","Standard"
"13614","Brier Hill","Saint Lawrence","Standard"
"13615","Brownville","Jefferson","P.O. Box"
"13616","Calcium","Jefferson","Standard"
"13617","Canton","Saint Lawrence","Standard"
"13618","Cape Vincent","Jefferson","Standard"
"13619","Carthage","Jefferson","Standard"
"13620","Castorland","Lewis","Standard"
"13621","Chase Mills","Saint Lawrence","Standard"
"13622","Chaumont","Jefferson","Standard"
"13623","Chippewa Bay","Saint Lawrence","P.O. Box"
"13624","Clayton","Jefferson","Standard"
"13625","Colton","Saint Lawrence","Standard"
"13626","Copenhagen","Lewis","Standard"
"13627","Deer River","Lewis","P.O. Box"
"13628","Deferiet","Jefferson","P.O. Box"
"13630","De Kalb Junction","Saint Lawrence","Standard"
"13631","Denmark","Lewis","P.O. Box"
"13632","Depauville","Jefferson","P.O. Box"
"13633","De Peyster","Saint Lawrence","Standard"
"13634","Dexter","Jefferson","Standard"
"13635","Edwards","Saint Lawrence","Standard"
"13636","Ellisburg","Jefferson","Standard"
"13637","Evans Mills","Jefferson","Standard"
"13638","Felts Mills","Jefferson","Standard"
"13639","Fine","Saint Lawrence","Standard"
"13640","Wellesley Island","Jefferson","Standard"
"13641","Fishers Landing","Jefferson","P.O. Box"
"13642","Gouverneur","Saint Lawrence","Standard"
"13643","Great Bend","Jefferson","P.O. Box"
"13645","Hailesboro","Saint Lawrence","P.O. Box"
"13646","Hammond","Saint Lawrence","Standard"
"13647","Hannawa Falls","Saint Lawrence","P.O. Box"
"13648","Harrisville","Lewis","Standard"
"13649","Helena","Saint Lawrence","P.O. Box"
"13650","Henderson","Jefferson","Standard"
"13651","Henderson Harbor","Jefferson","P.O. Box"
"13652","Hermon","Saint Lawrence","Standard"
"13654","Heuvelton","Saint Lawrence","Standard"
"13655","Hogansburg","Franklin","Standard"
"13656","La Fargeville","Jefferson","Standard"
"13657","Limerick","Jefferson","P.O. Box"
"13658","Lisbon","Saint Lawrence","Standard"
"13659","Lorraine","Jefferson","Standard"
"13660","Madrid","Saint Lawrence","Standard"
"13661","Mannsville","Jefferson","Standard"
"13662","Massena","Saint Lawrence","Standard"
"13664","Morristown","Saint Lawrence","Standard"
"13665","Natural Bridge","Jefferson","Standard"
"13666","Newton Falls","Saint Lawrence","P.O. Box"
"13667","Norfolk","Saint Lawrence","Standard"
"13668","Norwood","Saint Lawrence","Standard"
"13669","Ogdensburg","Saint Lawrence","Standard"
"13670","Oswegatchie","Saint Lawrence","Standard"
"13671","Antwerp","Jefferson","P.O. Box"
"13672","Parishville","Saint Lawrence","Standard"
"13673","Philadelphia","Jefferson","Standard"
"13674","Pierrepont Manor","Jefferson","P.O. Box"
"13675","Plessis","Jefferson","Standard"
"13676","Potsdam","Saint Lawrence","Standard"
"13677","Pyrites","Saint Lawrence","P.O. Box"
"13678","Raymondville","Saint Lawrence","P.O. Box"
"13679","Redwood","Jefferson","Standard"
"13680","Rensselaer Falls","Saint Lawrence","Standard"
"13681","Richville","Saint Lawrence","Standard"
"13682","Rodman","Jefferson","Standard"
"13683","Rooseveltown","Saint Lawrence","P.O. Box"
"13684","Russell","Saint Lawrence","Standard"
"13685","Sackets Harbor","Jefferson","Standard"
"13687","South Colton","Saint Lawrence","Standard"
"13690","Star Lake","Saint Lawrence","Standard"
"13691","Theresa","Jefferson","Standard"
"13692","Thousand Island Park","Jefferson","P.O. Box"
"13693","Three Mile Bay","Jefferson","Standard"
"13694","Waddington","Saint Lawrence","Standard"
"13695","Wanakena","Saint Lawrence","P.O. Box"
"13696","West Stockholm","Saint Lawrence","Standard"
"13697","Winthrop","Saint Lawrence","Standard"
"13699","Potsdam","Saint Lawrence","Unique"
"13730","Afton","Chenango","Standard"
"13731","Andes","Delaware","Standard"
"13732","Apalachin","Tioga","Standard"
"13733","Bainbridge","Chenango","Standard"
"13734","Barton","Tioga","Standard"
"13736","Berkshire","Tioga","Standard"
"13737","Bible School Park","Broome","P.O. Box"
"13738","Blodgett Mills","Cortland","P.O. Box"
"13739","Bloomville","Delaware","Standard"
"13740","Bovina Center","Delaware","Standard"
"13743","Candor","Tioga","Standard"
"13744","Castle Creek","Broome","Standard"
"13745","Chenango Bridge","Broome","P.O. Box"
"13746","Chenango Forks","Broome","Standard"
"13747","Colliersville","Otsego","P.O. Box"
"13748","Conklin","Broome","Standard"
"13749","Corbettsville","Broome","P.O. Box"
"13750","Davenport","Delaware","Standard"
"13751","Davenport Center","Delaware","Standard"
"13752","Delancey","Delaware","Standard"
"13753","Delhi","Delaware","Standard"
"13754","Deposit","Broome","Standard"
"13755","Downsville","Delaware","Standard"
"13756","East Branch","Delaware","Standard"
"13757","East Meredith","Delaware","Standard"
"13758","East Pharsalia","Chenango","P.O. Box"
"13760","Endicott","Broome","Standard"
"13761","Endicott","Broome","P.O. Box"
"13762","Endwell","Broome","P.O. Box"
"13763","Endicott","Broome","P.O. Box"
"13774","Fishs Eddy","Delaware","P.O. Box"
"13775","Franklin","Delaware","Standard"
"13776","Gilbertsville","Otsego","Standard"
"13777","Glen Aubrey","Broome","Standard"
"13778","Greene","Chenango","Standard"
"13780","Guilford","Chenango","Standard"
"13782","Hamden","Delaware","Standard"
"13783","Hancock","Delaware","Standard"
"13784","Harford","Cortland","P.O. Box"
"13786","Harpersfield","Delaware","Standard"
"13787","Harpursville","Broome","Standard"
"13788","Hobart","Delaware","Standard"
"13790","Johnson City","Broome","Standard"
"13794","Killawog","Broome","P.O. Box"
"13795","Kirkwood","Broome","Standard"
"13796","Laurens","Otsego","Standard"
"13797","Lisle","Broome","Standard"
"13801","Mc Donough","Chenango","Standard"
"13802","Maine","Broome","Standard"
"13803","Marathon","Cortland","Standard"
"13804","Masonville","Delaware","Standard"
"13806","Meridale","Delaware","Standard"
"13807","Milford","Otsego","Standard"
"13808","Morris","Otsego","Standard"
"13809","Mount Upton","Chenango","Standard"
"13810","Mount Vision","Otsego","Standard"
"13811","Newark Valley","Tioga","Standard"
"13812","Nichols","Tioga","Standard"
"13813","Nineveh","Broome","Standard"
"13814","North Norwich","Chenango","P.O. Box"
"13815","Norwich","Chenango","Standard"
"13820","Oneonta","Otsego","Standard"
"13825","Otego","Otsego","Standard"
"13826","Ouaquaga","Broome","Standard"
"13827","Owego","Tioga","Standard"
"13830","Oxford","Chenango","Standard"
"13832","Plymouth","Chenango","Standard"
"13833","Port Crane","Broome","Standard"
"13834","Portlandville","Otsego","Standard"
"13835","Richford","Tioga","Standard"
"13838","Sidney","Delaware","Standard"
"13839","Sidney Center","Delaware","Standard"
"13840","Smithboro","Tioga","P.O. Box"
"13841","Smithville Flats","Chenango","Standard"
"13842","South Kortright","Delaware","Standard"
"13843","South New Berlin","Chenango","Standard"
"13844","South Plymouth","Chenango","Standard"
"13845","Tioga Center","Tioga","P.O. Box"
"13846","Treadwell","Delaware","Standard"
"13847","Trout Creek","Delaware","P.O. Box"
"13848","Tunnel","Broome","P.O. Box"
"13849","Unadilla","Otsego","Standard"
"13850","Vestal","Broome","Standard"
"13851","Vestal","Broome","P.O. Box"
"13856","Walton","Delaware","Standard"
"13859","Wells Bridge","Otsego","Standard"
"13860","West Davenport","Delaware","P.O. Box"
"13861","West Oneonta","Otsego","Standard"
"13862","Whitney Point","Broome","Standard"
"13863","Willet","Cortland","Standard"
"13864","Willseyville","Tioga","Standard"
"13865","Windsor","Broome","Standard"
"13901","Binghamton","Broome","Standard"
"12484","Stone Ridge","Ulster","Standard"
"12485","Tannersville","Greene","Standard"
"12486","Tillson","Ulster","Standard"
"12487","Ulster Park","Ulster","Standard"
"12489","Wawarsing","Ulster","P.O. Box"
"12490","West Camp","Ulster","P.O. Box"
"12491","West Hurley","Ulster","Standard"
"12492","West Kill","Greene","Standard"
"12493","West Park","Ulster","P.O. Box"
"12494","West Shokan","Ulster","Standard"
"12495","Willow","Ulster","Standard"
"12496","Windham","Greene","Standard"
"12498","Woodstock","Ulster","Standard"
"12501","Amenia","Dutchess","Standard"
"12502","Ancram","Columbia","Standard"
"12503","Ancramdale","Columbia","Standard"
"12504","Annandale On Hudson","Dutchess","P.O. Box"
"12506","Bangall","Dutchess","P.O. Box"
"12507","Barrytown","Dutchess","Standard"
"12508","Beacon","Dutchess","Standard"
"12510","Billings","Dutchess","P.O. Box"
"12511","Castle Point","Dutchess","P.O. Box"
"12512","Chelsea","Dutchess","P.O. Box"
"12513","Claverack","Columbia","Standard"
"12514","Clinton Corners","Dutchess","Standard"
"12515","Clintondale","Ulster","Standard"
"12516","Copake","Columbia","Standard"
"12517","Copake Falls","Columbia","Standard"
"12518","Cornwall","Orange","Standard"
"12520","Cornwall On Hudson","Orange","Standard"
"12521","Craryville","Columbia","Standard"
"12522","Dover Plains","Dutchess","Standard"
"12523","Elizaville","Columbia","Standard"
"12524","Fishkill","Dutchess","Standard"
"12525","Gardiner","Ulster","Standard"
"12526","Germantown","Columbia","Standard"
"12527","Glenham","Dutchess","P.O. Box"
"12528","Highland","Ulster","Standard"
"12529","Hillsdale","Columbia","Standard"
"12530","Hollowville","Columbia","P.O. Box"
"12531","Holmes","Dutchess","Standard"
"12533","Hopewell Junction","Dutchess","Standard"
"12534","Hudson","Columbia","Standard"
"12537","Hughsonville","Dutchess","P.O. Box"
"12538","Hyde Park","Dutchess","Standard"
"12540","Lagrangeville","Dutchess","Standard"
"12541","Livingston","Columbia","P.O. Box"
"12542","Marlboro","Ulster","Standard"
"12543","Maybrook","Orange","Standard"
"12544","Mellenville","Columbia","P.O. Box"
"12545","Millbrook","Dutchess","Standard"
"12546","Millerton","Dutchess","Standard"
"12547","Milton","Ulster","Standard"
"12548","Modena","Ulster","Standard"
"12549","Montgomery","Orange","Standard"
"12550","Newburgh","Orange","Standard"
"12551","Newburgh","Orange","P.O. Box"
"12552","Newburgh","Orange","P.O. Box"
"12553","New Windsor","Orange","Standard"
"12555","Newburgh","Orange","P.O. Box"
"12561","New Paltz","Ulster","Standard"
"12563","Patterson","Putnam","Standard"
"12564","Pawling","Dutchess","Standard"
"12565","Philmont","Columbia","Standard"
"12566","Pine Bush","Orange","Standard"
"12567","Pine Plains","Dutchess","Standard"
"12568","Plattekill","Ulster","P.O. Box"
"12569","Pleasant Valley","Dutchess","Standard"
"12570","Poughquag","Dutchess","Standard"
"12571","Red Hook","Dutchess","Standard"
"12572","Rhinebeck","Dutchess","Standard"
"12574","Rhinecliff","Dutchess","P.O. Box"
"12575","Rock Tavern","Orange","Standard"
"12577","Salisbury Mills","Orange","Standard"
"12578","Salt Point","Dutchess","Standard"
"12580","Staatsburg","Dutchess","Standard"
"12581","Stanfordville","Dutchess","Standard"
"12582","Stormville","Dutchess","Standard"
"12583","Tivoli","Dutchess","Standard"
"12584","Vails Gate","Orange","P.O. Box"
"12585","Verbank","Dutchess","Standard"
"12586","Walden","Orange","Standard"
"12588","Walker Valley","Ulster","P.O. Box"
"12589","Wallkill","Ulster","Standard"
"12590","Wappingers Falls","Dutchess","Standard"
"12592","Wassaic","Dutchess","Standard"
"12594","Wingdale","Dutchess","Standard"
"12601","Poughkeepsie","Dutchess","Standard"
"12602","Poughkeepsie","Dutchess","P.O. Box"
"12603","Poughkeepsie","Dutchess","Standard"
"12604","Poughkeepsie","Dutchess","Unique"
"12701","Monticello","Sullivan","Standard"
"12719","Barryville","Sullivan","Standard"
"12720","Bethel","Sullivan","Standard"
"12721","Bloomingburg","Sullivan","Standard"
"12722","Burlingham","Sullivan","P.O. Box"
"12723","Callicoon","Sullivan","Standard"
"12724","Callicoon Center","Sullivan","P.O. Box"
"12725","Claryville","Sullivan","Standard"
"12726","Cochecton","Sullivan","Standard"
"12727","Cochecton","Sullivan","Standard"
"12729","Cuddebackville","Orange","Standard"
"12732","Eldred","Sullivan","Standard"
"12733","Fallsburg","Sullivan","Standard"
"12734","Ferndale","Sullivan","Standard"
"12736","Fremont Center","Sullivan","Standard"
"12737","Glen Spey","Sullivan","Standard"
"12738","Glen Wild","Sullivan","Standard"
"12740","Grahamsville","Sullivan","Standard"
"12741","Hankins","Sullivan","Standard"
"12742","Harris","Sullivan","Standard"
"12743","Highland Lake","Sullivan","Standard"
"12745","Hortonville","Sullivan","Standard"
"12746","Huguenot","Orange","Standard"
"12747","Hurleyville","Sullivan","Standard"
"12748","Jeffersonville","Sullivan","Standard"
"12749","Kauneonga Lake","Sullivan","P.O. Box"
"12750","Kenoza Lake","Sullivan","Standard"
"12751","Kiamesha Lake","Sullivan","Standard"
"12752","Lake Huntington","Sullivan","Standard"
"12754","Liberty","Sullivan","Standard"
"12758","Livingston Manor","Sullivan","Standard"
"12759","Loch Sheldrake","Sullivan","Standard"
"12760","Long Eddy","Sullivan","Standard"
"12762","Mongaup Valley","Sullivan","Standard"
"12763","Mountain Dale","Sullivan","Standard"
"12764","Narrowsburg","Sullivan","Standard"
"12765","Neversink","Sullivan","Standard"
"12766","North Branch","Sullivan","Standard"
"12767","Obernburg","Sullivan","P.O. Box"
"12768","Parksville","Sullivan","Standard"
"12769","Phillipsport","Sullivan","P.O. Box"
"12770","Pond Eddy","Sullivan","Standard"
"12771","Port Jervis","Orange","Standard"
"12775","Rock Hill","Sullivan","Standard"
"12776","Roscoe","Sullivan","Standard"
"12777","Forestburgh","Sullivan","Standard"
"12778","Smallwood","Sullivan","P.O. Box"
"12779","South Fallsburg","Sullivan","Standard"
"12780","Sparrow Bush","Orange","Standard"
"12781","Summitville","Sullivan","P.O. Box"
"12783","Swan Lake","Sullivan","Standard"
"12784","Thompsonville","Sullivan","P.O. Box"
"12785","Westbrookville","Sullivan","P.O. Box"
"12786","White Lake","Sullivan","Standard"
"12787","White Sulphur Springs","Sullivan","Standard"
"12788","Woodbourne","Sullivan","Standard"
"12789","Woodridge","Sullivan","Standard"
"12790","Wurtsboro","Sullivan","Standard"
"12791","Youngsville","Sullivan","Standard"
"12792","Yulan","Sullivan","Standard"
"12801","Glens Falls","Warren","Standard"
"12803","South Glens Falls","Saratoga","Standard"
"12804","Queensbury","Warren","Standard"
"12808","Adirondack","Warren","Standard"
"12809","Argyle","Washington","Standard"
"12810","Athol","Warren","Standard"
"12811","Bakers Mills","Warren","P.O. Box"
"12812","Blue Mountain Lake","Hamilton","Standard"
"12814","Bolton Landing","Warren","Standard"
"12815","Brant Lake","Warren","Standard"
"12816","Cambridge","Washington","Standard"
"12817","Chestertown","Warren","Standard"
"12819","Clemons","Washington","Standard"
"12820","Cleverdale","Warren","P.O. Box"
"12821","Comstock","Washington","Standard"
"12822","Corinth","Saratoga","Standard"
"12823","Cossayuna","Washington","Standard"
"12824","Diamond Point","Warren","Standard"
"12827","Fort Ann","Washington","Standard"
"12828","Fort Edward","Washington","Standard"
"12831","Gansevoort","Saratoga","Standard"
"12832","Granville","Washington","Standard"
"12833","Greenfield Center","Saratoga","Standard"
"12834","Greenwich","Washington","Standard"
"12835","Hadley","Saratoga","Standard"
"12836","Hague","Warren","Standard"
"12837","Hampton","Washington","Standard"
"12838","Hartford","Washington","Standard"
"12839","Hudson Falls","Washington","Standard"
"12841","Huletts Landing","Washington","P.O. Box"
"12842","Indian Lake","Hamilton","Standard"
"12843","Johnsburg","Warren","Standard"
